"primary","house","street","city","state","zipcode","block","lot","parcel","locationType","notes"
"False","918","Railroad Avenue","Tallahassee","FL","32310","","","","",""
"True","755","Rustling Pines Blvd","Midway","FL","32343","","","","",""
"True","3230","Almanac Road","Tallahassee","FL","","","","","",""
"True","96","Slash Pine Dr.","Crawfordville","FL","32327","","","","",""
"False","627","Nocatee Rd.","Tallahassee","FL","32305","","","","",""
"False","","Old Federal Rd","Quincy","FL","32351","","","","",""
"True","1520","Killearn Center Blvd.","Tallahassee","FL","32309","","","","",""
"True","8233","Queen Anna Dr","Tallahassee","FL","32317","","","","",""
"True","6413","Cavalcade","Tallahassee","FL","32309","","","","",""
"False","","Turkey Roost Rd","Tallahassee","FL","32317","","","","",""
"False","3056","Dickenson Dr.","Tallahassee","FL","32311","","","","",""
"True","6503","Saylers Creek Ct.","Tallahassee","FL","32309","","","","",""
"False","6503","Saylers Creek Ct.","Tallahassee","FL","32309","","","","",""
"False","1432","Oaklands Plantation rd","Monticello","FL","32344","","","","",""
"True","3529","Trillion Ct","Tallahassee","FL","32312","","","","",""
"True","724","Greenleaf Dr.","Tallahassee","FL","32305","","","","",""
"True","6753","Allen-A-Dale Trl","Tallahassee","FL","32309","","","","",""
"False","3320","Gallant Fox TrailT","Tallahassee","FL","32309","","","","",""
"False","","evergreen hills ct","Tallahassee","FL","32305","","","","",""
"True","5105","Chambord Drive","Tallahassee","FL","32308","","","","",""
"False","4736","Maylor Rd","Tallahassee","FL","32308","","","","",""
"False","6775","Cir J Dr.","Tallahassee","FL","32312","","","","",""
"True","732","Sir Richard Rd","Tallahassee","FL","32310","","","","",""
"False","404","Bell Rd","Havana","FL","32333","","","","",""
"False","66","Deer Creek","Tallahassee","FL","32333","","","","",""
"False","22","Noah Ct","Crawfordville","FL","32327","","","","",""
"True","76","Edgewood Dr.","Crawfordville","FL","32327","","","","",""
"True","460","Mount Pleasant Rd.","Gretna","FL","32352","","","","",""
"True","3201","Gallant Fox Trail","Tallahassee","FL","32309","","","","",""
"True","1149","Corby Ct.","Tallahassee","FL","32317","","","","",""
"True","7754","McClure Dr.","Tallahassee","FL","32312","","","","",""
"True","3019","Whirlaway Trl.","Tallahassee","FL","32308","","","","",""
"True","16842","Blountstown Hwy","Tallahassee","FL","32310","","","","",""
"True","1486","Ferzon Way","Tallahassee","FL","32312","","","","",""
"True","2976","Kemp Rd.","Havana","FL","32333","","","","",""
"True","789","Natural Bridge Rd.","Monticello","FL","32344","","","","",""
"True","393","Castleton Cir.","Tallahassee","FL","32312","","","","",""
"False","3020","Bell Grove Dr.","Tallahassee","FL","32308","","","","",""
"True","5001","Riverwood Rd","Tallahassee","FL","32303","","","","",""
"True","9145","Conestoga Ave","Tallahassee","FL","32309","","","","",""
"True","2312","Haverhill Rd.","Tallahassee","FL","32312","","","","",""
"True","8018","Susan Bradford Ln.","Tallahassee","FL","32309","","","","",""
"True","4291","Camden Rd.","Tallahassee","FL","32303","","","","",""
"True","1552","Bur Oak Drive","Tallahassee","FL","32305","","","","",""
"True","510","FrankÂ Shaw Rd.","Tallahassee","FL","32312","","","","",""
"True","4398","Woodbridge Rd,","Tallahassee","FL","23203","","","","",""
"True","2888","Spring Creek Highway","Crawfordville","FL","32327","","","","",""
"True","9279","White Blossom Way","Tallahassee","FL","32317","","","","",""
"True","6161","Williams Rd.","Tallahassee","FL","32311","","","","",""
"True","4426","Rabbit Pond Rd","Tallahassee","FL","32308","","","","",""
"False","3168","Lookout Trail","Tallahassee","FL","32309","","","","",""
"False","","Crestwood Dr.","Tallahassee","FL","32311","","","","",""
"False","1804","Skyland Dr","Tallahassee","FL","32303","","","","",""
"True","316","Rozena Loop,","Tallahassee","FL","32343","","","","",""
"True","2332","Haverhill Road","Tallahassee","FL","32312","","","","","09-0217R,ATU MAINTENANCE"
"True","3551","South Blair Stone Rd.","Tallahassee","FL","32301","","","","",""
"False","2417","Millcreek Ct., #2","Tallahassee","FL","32308","","","","",""
"False","3377","Mariana Oaks Dr","Tallahassee","FL","32311","","","","",""
"True","2732","Capital Circle, NE","Tallahassee","FL","32308","","","","",""
"False","6547","Hugh Rd.","Tallahassee","FL","32309","","","","",""
"True","10519","Blue Wing Court","Tallahassee","FL","32312","","","","",""
"True","4906","High Grove Road","Tallahassee","FL","32309","","","","",""
"True","202","White Oak Dr.","Crawfordville","FL","32327","","","","",""
"False","3289","Bannerman Rd.","Tallahassee","FL","32312","","","","",""
"True","1423","LLoyds Cove Rd.","Tallahassee","FL","32312","","","","",""
"True","7666","McClure Dr","Tallahassee","FL","32312","","","","",""
"True","5347","Widefield Dr.","Tallahassee","FL","32309","","","","",""
"True","5055","Sundance Lane","Tallahassee","FL","32309","","","","",""
"True","2001","Morning Dove Rd.","Tallahassee","FL","32310","","","","",""
"False","7005","Azusa Rd","Tallahassee","FL","32317","","","","",""
"True","6809","Walden Cir.","Tallahassee","FL","32317","","","","",""
"True","4925","Annette Dr.","Tallahassee","FL","32303","","","","",""
"True","1579","Cliffordhill Rd.","Tallahassee","FL","32308","","","","",""
"True","","","","FL","","","","","",""
"True","5075","Easy Street","Tallahassee","FL","32303","","","","",""
"True","5810","North Monroe Street","Tallahassee","FL","32303","","","","","REALTOR"
"True","12850","Cos Bluff","Tallahassee","FL","32310","","","","",""
"True","2013","Kingsbridge Ct.","Tallahassee","FL","32311","","","","",""
"True","4499","Argyle Ln.","Tallahassee","FL","32309","","","","",""
"False","1928","Chimney Swift Hallow","Tallahassee","FL","32312","","","","",""
"True","9681","South Horseshoe Rd.","Tallahassee","FL","32317","","","","",""
"True","677","Forest Lair","Tallahassee","FL","32312","","","","",""
"True","8370","Glendalin Rd","Tallahassee","FL","32311","","","","",""
"True","8127","Tally Ann Drive","Tallahassee","FL","32311","","","","",""
"True","2222","Springview Trl","Tallahassee","FL","32305","","","","",""
"True","9601","Waters Meet Dr.","Tallahassee","FL","32312","","","","",""
"True","1520","Killearn Center Blvd","Tallahassee","FL","32309","","","","","REALTOR"
"True","425","Kittrell Rd.","Quincy","FL","32351","","","","",""
"True","7420","Hickock Ct.","Tallahassee","FL","32311","","","","",""
"True","206","Country Club Dr.","Havana","FL","32333","","","","",""
"False","170","Getty Rd","Tallahassee","FL","32304","","","","",""
"True","112","River Plantation Rd","Crawfordville","FL","32327","","","","",""
"True","3027","Hawks Landing Dr.","Tallahassee","FL","32309","","","","",""
"True","4736","Pimlico Dr.","Tallahassee","FL","32309","","","","",""
"False","9031","Foxwood Dr. N","Tallahassee","FL","32309","","","","",""
"False","2308","Orleans Dr","Tallahassee","FL","32308","","","","",""
"True","5617","WESTVIEW LN","Tallahassee","FL","32310","","","","",""
"False","805","N Gadsden St.","Tallahassee","FL","32303","","","","",""
"True","24486","Lanier St","Tallahassee","FL","32310","","","","",""
"False","","PO Box 912","Apalachicola","FL","32329-0912","","","","",""
"True","4760","Sweetwater Ln","Tallahassee","FL","32311","","","","",""
"True","2708","Dubussy Ct.","Tallahassee","FL","32308","","","","",""
"True","1626","-D-Hwy","Crawfordville","FL","32327","","","","","REALTOR"
"True","26","Park Terrace Dr.","St. Augustine","FL","32080","","","","",""
"True","1570","Twin Lakes Cir.","Tallahassee","FL","32311","","","","",""
"True","3820","Cottingham Dr.","Tallahassee","FL","32303","","","","",""
"True","1821","Tallavana Trail","Havana","FL","32333","","","","",""
"True","13","Satinwood Dr. 32327","Crawfordville","FL","32327","","","","",""
"True","","P.O. Box 180324","Tallahassee","FL","32318","","","","",""
"False","11","Quail Hallow ct.","Midway","FL","32343","","","","",""
"True","401","Cloverdale","Tallahassee","FL","32312","","","","",""
"True","2311","Cumberland Drive","Tallahassee","FL","32303","","","","",""
"True","1062","Spring Creek Hwy","Crawfordville","FL","32327","","","","",""
"False","2025","Stork Road","Tallahassee","FL","32305","","","","",""
"True","11001","Luna Point Rd.","Tallahassee","FL","32312","","","","",""
"True","343","Old Dirt Rd.","Tallahassee","FL","32317","","","","",""
"True","3524","Oakhill Trl.","Tallahassee","FL","32309","","","","",""
"True","2795","Pine Ridge Rd.","Tallahassee","FL","32309","","","","",""
"True","1716","Evening Breeze Ln","Tallahassee","FL","32312","","","","",""
"False","3712","Matt Wing Rd","Tallahassee","FL","32311","","","","",""
"True","435","Nautilus Dr.","Monticello","FL","32344","","","","",""
"True","319","McLendon Ln","Quincy","FL","32351","","","","",""
"True","199","Mt. Zion Rd.","Crawfordville","FL","32327","","","","",""
"False","820","E. Park Ave. Bldg. A","Tallahassee","FL","32301","","","","",""
"False","3447","Valley Creek","Tallahassee","FL","32312","","","","",""
"False","522","E. Jefferson St","Tallahassee","FL","32301","","","","",""
"False","820","Building A East Park Ave.","Tallahassee","FL","32301","","","","",""
"True","2656","Onyx Trl","Tallahassee","FL","32303","","","","",""
"True","14243","Turkey Creek Dr.","Tallahassee","FL","32312","","","","",""
"True","4412","Woodbridge Rd.","Tallahassee","FL","32303","","","","",""
"True","56","Mayfair Dr","Crawfordville","FL","32327","","","","",""
"True","52","Three Sisters","Crawfordville","FL","32327","","","","",""
"False","3105","Coastal Highway","Crawfordville","FL","32327","","","","",""
"False","1322","Avondale Way","Tallahassee","FL","32317","","","","",""
"False","8338","Hunters Ridge Trl.","Tallahassee","FL","32312","","","","",""
"True","2601","Lucerne Dr.","Tallahassee","FL","32303","","","","",""
"True","1118","Bethel Church Rd.","Tallahasse","FL","32304","","","","",""
"True","1132","Green Hills Trce.","Tallahassee","FL","32317","","","","",""
"True","3074","Bell Grove Dr.","Tallahassee","FL","32308","","","","",""
"True","4991","Glen Castle Drive","Tallahassee","FL","32309","","","","",""
"True","3120","Elwood Trl.","Tallahassee","FL","32309","","","","",""
"True","2353","Tour Eiffel Dr.","Tallahassee","FL","32308","","","","",""
"True","8425","Pine Cone Rd","Tallahassee","FL","32311","","","","",""
"False","3412","Native Dancer Trl","Tallahassee","FL","32309","","","","",""
"True","3160","Lookout Trl","Tallahassee","FL","32309","","","","",""
"True","62","Andrew J Hargrett SR. Rd","Crawfordville","FL","32327","","","","",""
"False","1617","Paula Dr","Tallahassee","FL","32303","","","","",""
"True","4075","Buck Lake Rd.","Tallahassee","FL","32317","","","","",""
"False","3260","North Shannon Lakes","Tallahassee","FL","32309","","","","",""
"True","7059","Blueberry Hill Dr.","Tallahassee","FL","32303","","","","",""
"True","745","Middlewood Dr.","Tallahassee","FL","32312","","","","",""
"True","549","Frank Shaw Road","Tallahassee","FL","32312","","","","",""
"False","309","Howell St","Eastpoint","FL","32328","","","","",""
"True","8748","Opal Dr.","Tallahassee","FL","32309","","","","",""
"True","1430","Blockford Ct W","Tallahassee","FL","32317","","","","",""
"True","2312","Cleburn Ln","Tallahassee","FL","32309","","","","",""
"True","107","Lantern Lane","Havana","FL","32333","","","","",""
"True","7563","Mill Pond Loop","Tallahassee","FL","32317","","","","",""
"True","3971","Camino Real","Tallahassee","FL","32311","","","","",""
"True","6724","Johnstown Loop","Tallahassee","FL","32309","","","","",""
"True","4150","Deer Lane Dr","Tallahassee","FL","32312","","","","",""
"True","6334","Thomasville Rd.","Tallahassee","FL","32312","","","","",""
"False","6373","N Placid Place","Tallahassee","FL","32303","","","","",""
"False","6277","Ranch Rd.","Tallahassee","FL","32311","","","","",""
"False","1230","Archangel Way","Tallahassee","FL","32317","","","","",""
"True","2134","Harriet Drive","Tallahassee","FL","","","","","",""
"True","401","Dartmoor Dr.","Tallahassee","FL","32312","","","","",""
"True","3328","Nottingham Dr.","Tallahassee","FL","32312","","","","",""
"True","3900","Wood Green Way","Tallahassee","FL","32309","","","","",""
"True","2653","Tiny Leaf Rd","Tallahassee","FL","32305","","","","",""
"True","20","Myrtle Ave.","Crawfordville","FL","32327","","","","",""
"True","5979","Thornton Ln","Tallahassee","FL","32308","","","","",""
"False","","ATTN: Steve Bolton","","FL","","","","","",""
"True","3225","Tanager Trl.","Tallahassee","FL","32303","","","","",""
"True","6020","Tindell Lane","Tallahassee","FL","32311","","","","",""
"False","16856","Aqua Ln","Tallahassee","FL","32310","","","","",""
"True","3729","Wood Hill Dr.","Tallahassee","FL","32303","","","","",""
"True","2035","Canewood Ct.","Tallahassee","FL","32303","","","","",""
"True","3180","Olson Rd.","Tallahassee","FL","32308","","","","",""
"False","236","Green Meadows Dr","Monticello","FL","32344","","","","",""
"True","943","Gentian Ct.","Tallahassee","FL","32312","","","","",""
"False","903","Indian St.","Havana","FL","32333","","","","",""
"True","122","Lake Ellen Cir.","Crawfordville","FL","32327","","","","",""
"True","2525","Hickory Ridge Rd.","Tallahassee","FL","32308","","","","",""
"True","5000","Brill Point Rd","Tallahassee","FL","32312","","","","",""
"True","8300","Deerlake Road","Tallahassee","FL","32312","","","","",""
"False","351","Kiley Dr","Monticello","FL","32344","","","","",""
"True","2023","Hill N Dale","Tallahassee","FL","32317","","","","",""
"True","2079","Cynthia Dr.","Tallahassee","FL","32303","","","","",""
"True","11142","W Pony Trl.","","FL","","","","","",""
"True","2024","Shady Oaks Dr","TAllahassee","FL","32303","","","","",""
"True","2227","Ruadh Ride","Tallahassee","FL","32303","","","","",""
"True","2100","Thirlestane Rd.","Tallahassee","FL","32309","","","","",""
"True","1837","Collins Landing Rd.","Tallahassee","FL","32310","","","","",""
"True","3150","Old St. Augustine Rd.","Tallahassee","FL","32311","","","","",""
"True","7908","Christy Cary Ln","Tallahasee","FL","32304","","","","",""
"True","400","El Destinado Dr.","Tallahassee","FL","32312","","","","",""
"True","8005","Freshwater Farms Rd","Tallahassee","FL","32309","","","","",""
"False","","","","FL","","","","","",""
"True","2363","Tuscavilla Rd.","Tallahassee","FL","32312","","","","",""
"True","6584","Montrose Trail","Tallahassee","FL","32309","","","","",""
"False","808","W St Augustine St.","Tallahassee","FL","32304","","","","",""
"True","1404","Randolph Cir.","Tallahassee","FL","32308","","","","",""
"True","8851","Star Gate Way","Tallahassee","FL","32308","","","","",""
"True","277","Pond Pine St.","Tallahassee","FL","32310","","","","",""
"True","2021","Dyrehaven Dr.","Tallahassee","FL","32317","","","","",""
"False","9230","Bartlett Ln","Tallahassee","FL","32305","","","","",""
"True","4216","Kingswood Dr.","Tallahasse","FL","32303","","","","",""
"False","1946","Longview Dr.","Tallahassee","FL","32303","","","","",""
"True","4279","English Ln.","Tallahassee","FL","32301","","","","",""
"True","2716","Millstone Plantation Rd.","Tallahassee","FL","32312","","","","",""
"True","1203","Lovers Lane S.","Tallahassee","FL","32317","","","","",""
"True","24","Delores Madison Dr","Midway","FL","32343","","","","",""
"False","415","Capital Circle SW","Tallahassee","FL","32304","","","","",""
"True","473","Great Oaks Blvd.","Monticello","FL","32344","","","","",""
"True","7046","Dardwood Ln.","Tallahassee","FL","32312","","","","",""
"False","48","Marie Cir","Crawfordville","FL","32327","","","","",""
"True","9104","Ravena Rd","Tallahassee","FL","32309","","","","",""
"True","4732","Mahan Dr.","Tallahassee","FL","32308","","","","",""
"True","2905","Camelliawood Ln.","Tallahassee","FL","32301","","","","",""
"True","371","Centenary Camp Rd.","Quincy","FL","","","","","",""
"False","207","Greenway Havana","Havana","FL","32333","","","","",""
"True","6088","Tall Pine Dr.","Tallahassee","FL","32303","","","","",""
"True","7000","Alhambra Drive","Tallahassee","FL","32317","","","","",""
"True","1193","Walden Rd","Tallahassee","FL","32317","","","","",""
"False","4203","Sierra Woods Trl","Tallahassee","FL","32311","","","","",""
"True","308","Oaks Will Ct.","Tallahassee","FL","32312","","","","","MAINTENANCE"
"True","2624","Onyx Trail","Tallahassee","FL","32303","","","","",""
"True","8560","Bannerman Bluff","Tallahassee","FL","32312","","","","",""
"True","2112","Ashby Hill Road","Tallahassee","FL","32303","","","","",""
"True","4552","Cypress Point Rd.","Tallahassee","FL","32305","","","","",""
"True","7480","Serna Dr.","Tallahassee","FL","32309","","","","",""
"True","6452","Count Turf Trl","Tallahassee","FL","32309","","","","",""
"True","3049","Hickory Wind Rd.","Tallahassee","FL","32317","","","","",""
"True","3956","Bobbin Brooke Cir.","Tallahassee","FL","32312","","","","",""
"True","1725","Evening Breeze Ln.","Tallahassee","FL","32312","","","","",""
"False","","","Crawfordville","FL","32327","","","","",""
"True","7416","Hickock Ct.","Tallahassee","FL","32311","","","","",""
"True","33","Mohawk Trl","Crawfordville","FL","32327","","","","",""
"True","1578","Twin Lakes Cir.","Tallahassee","FL","32311","","","","",""
"True","2148","Little River","Tallahassee","FL","32311","","","","",""
"True","3127","Hawks Landing Dr.","Tallahassee","FL","32309","","","","",""
"True","10061","Neamathla Trl.","Tallahassee","FL","32312","","","","",""
"True","220","Victoria Ave.","Havana","FL","32333","","","","",""
"True","14227","Turkey Creek Dr.","Tallahassee","FL","32312","","","","",""
"True","9708","Alice Moore Way","Tallahassee","FL","32309","","","","",""
"True","3512","Deerlane Dr.","Tallahassee","FL","32312","","","","",""
"False","10503","Blue Wing Ct.","Tallahassee","FL","32312","","","","",""
"False","3436","Edgemont Trl","Tallahassee","FL","32312","","","","",""
"False","2440","Monaco Dr.","Tallahassee","FL","32308","","","","",""
"True","250","Washington Ave","Havana","FL","32333","","","","",""
"False","4741","Thomasville Rd.","Tallahassee","FL","32309","","","","",""
"True","3377","Lakeview Dr.","Tallahassee","FL","32310","","","","",""
"True","367","Cook ST.","Eastpoint","FL","32328","","","","",""
"True","3521","Can Grove Rd","Tallahassee","FL","32303","","","","",""
"True","7120","Ox Bow Circle","Tallahassee","FL","32312","","","","",""
"False","8837","Green Acorn Ln","Tallahassee","FL","32317","","","","",""
"True","3940","Camino Real","Tallahassee","FL","32311","","","","",""
"True","14298","KinCross Ln","Tallahassee","FL","32312","","","","",""
"False","2025","FAULK DR","Tallahassee","FL","32303","","","","",""
"True","2423","Manaco Dr.","Tallahassee","FL","32308","","","","",""
"True","2044","Cynthia Dr.","Tallahassee","FL","32303","","","","",""
"True","97","Hans Ct","Havana","FL","32333","","","","",""
"True","370","Hill Top Dr.","Midway","FL","32343","","","","",""
"True","5012","Crestwood Ct","Tallahassee","FL","32311","","","","",""
"True","9065","Old Chemonie Rd.","Tallahassee","FL","32309","","","","",""
"False","3897","Long and Winding Rd.","Tallahassee","FL","32309","","","","",""
"True","205","Craig Dr.","Tallahassee","FL","32310","","","","",""
"True","3303","Thomasville Road, Suite 201","Tallahassee","FL","32308","","","","",""
"False","4301","Kimberly Cir","Tallahassee","FL","32309","","","","",""
"True","7771","Florida-Georgia Highway","Havana","FL","32333","","","","",""
"True","9696","Alice Moore Way","Tallahassee","FL","32309","","","","",""
"True","9460","Herold Hill","Tallahassee","FL","32309","","","","",""
"True","8018","Talley Ann Dr","Tallahassee","FL","32311","","","","",""
"True","1612","Folkstone Rd.","Tallahassee","FL","32312","","","","",""
"True","8277","Tram Rd.","Tallahassee","FL","32311","","","","",""
"True","25","Prospect Place","Havana","FL","32333","","","","",""
"False","3207","Shamrock Dr. E. #27","Tallahassee","FL","32309","","","","",""
"True","16","Simmie Dr","Crawfordville","FL","32327","","","","",""
"True","6843","Donerail Trl","Tallahassee","FL","32309","","","","",""
"False","860","Rehwinkle Road","Crawfordville","FL","32327","","","","",""
"True","9831","Dulce Maria Drive","Tallahassee","FL","32317","","","","",""
"True","8989","Old Chemonie","Tallahassee","FL","32309","","","","",""
"True","5991","Thorton Ln","Tallahassee","FL","32308","","","","",""
"True","6713","Tim Tam Trl.","Tallahassee","FL","32309","","","","",""
"True","3690","Corinth Dr.","Tallahassee","FL","32308","","","","",""
"False","10580","Old Pine Acres Trail","Tallahassee","FL","32305","","","","",""
"True","","PO Box 422","Woodville","FL","32362","","","","",""
"True","1409","Paul Thompson Rd.","Monticello","FL","32344","","","","",""
"True","3200","Jefferson Rd.","Tallahassee","FL","32317","","","","",""
"True","","P. O. Box 416","Lloyd","FL","32337","","","","",""
"True","1470","Van Delia Rd.","Tallahassee","FL","32310","","","","",""
"True","2455","WW Kelley Rd.","Tallahassee","FL","32311","","","","",""
"True","11275","Turkey Roost Rd","Tallahassee","FL","32317","","","","","MAINTENANCE"
"False","226","Ben Rd.","Monticello","FL","32344","","","","",""
"True","76","Salem Ct.","Havana","FL","32333","","","","",""
"True","2065","Mistletoe Ct.","Tallahassee","FL","32317","","","","",""
"True","5351","Talaposa Rd.","Tallahassee","FL","32303","","","","",""
"True","1052","Alameda Dr.","Tallahassee","FL","32317","","","","",""
"True","2031","Hill N Dale St N","Tallahassee","FL","32317","","","","",""
"True","409","Greenlea Cir.","Crawfordville","FL","32327","","","","",""
"False","3318","Lake Shore Dr.","Tallahassee","FL","32312","","","","",""
"True","73","Oakland Dr.","Crawfordville","FL","32327","","","","",""
"False","2190","Watts Rd","Perry","FL","32347","","","","",""
"True","329","Carr Ln","Tallahassee","FL","32312","","","","",""
"True","7139","Atasacadero Ln.","Tallahassee","FL","32317","","","","",""
"True","10020","Surrey Farms Ln","Tallahassee","FL","32309","","","","",""
"True","90","Greenlea Cir","Crawfordville","FL","32327","","","","",""
"True","7570","Skipper Ln.","Tallahassee","FL","32317","","","","",""
"True","12008","Miccosukee Rd.","Tallahassee","FL","32309","","","","",""
"False","15210","Mahan Dr","Tallahassee","FL","32309","","","","",""
"True","8715","Perker Lane","Tallahassee","FL","32317","","","","",""
"False","","thousand oaks cir","Tallahassee","FL","32309","","","","",""
"True","8039","Evening Star Ln.","Tallahassee","FL","32312","","","","",""
"True","3624","Harpers Ferry Dr.","Tallahassee","FL","32308","","","","",""
"True","6512","Man O War","Tallahassee","FL","32309","","","","",""
"False","","PO Box 37338","Tallahassee","FL","32315","","","","",""
"True","1400","Metropolitan Blvd., Suite 211","Tallahassee","FL","32308","","","","",""
"False","","Tiger Hammock Rd","Tallahassee","FL","32327","","","","",""
"True","9601","Miccosukee Rd. 44","Tallahassee","FL","32309","","","","",""
"True","3609","Monmouth Ct.","Tallahassee","FL","32308","","","","",""
"True","114","Dolly Dr","Crawfordville","FL","32327","","","","",""
"False","4070","St. Teresa Ave.","Panacea","FL","32346","","","","",""
"True","15","Bob Miller Rd","Crawfordville","FL","32327","","","","",""
"True","1016","Backforest Ln.","Tallahassee","FL","32305","","","","",""
"True","3017","Pasture Wood Ln.","Tallahassee","FL","32309","","","","",""
"True","5996","Colonel Scott Dr.","Tallahassee","FL","32309","","","","",""
"True","5714","Ed White Ct.","Tallahassee","FL","32311","","","","",""
"True","527","Tradition Way","Monticello","FL","32344","","","","",""
"False","1253","Yearling Trl.","Tallahassee","FL","32317","","","","",""
"True","6515","Aqueduct Ct.","Tallahassee","FL","32309","","","","",""
"True","1990","Beaver Creek","Havana","FL","32333","","","","",""
"True","2025","Atascadero Ct","Tallahassee","FL","32317","","","","",""
"True","56","Homan Point Ave","Crawfordville","FL","32327","","","","",""
"False","24","Anderson Ave","Havana","FL","32333","","","","",""
"True","415","Crossway Rd. 32305","Havana","FL","32333","","","","",""
"False","2851","Hwy","Crawfordville","FL","32327","","","","",""
"True","120","Frances Dr.","Havana","FL","32333","","","","",""
"False","4913","Highgrove Rd","Tallahassee","FL","32309","","","","",""
"True","1210","Springhaven Rd.","Tallahassee","FL","32317","","","","",""
"False","2539","Shadey Rest Rd. 32333","Tallahassee","FL","32333","","","","",""
"True","3239","Black Gold Trl.","Tallahassee","FL","32309","","","","",""
"True","1340","Lansdowne Rd.","Tallahassee","FL","32317","","","","",""
"True","102","Beechwood Drive","Crawfordville","FL","32327","","","","",""
"True","2000","Baum Rd","Tallahassee","FL","32317","","","","",""
"True","6184","Williams Rd.","Tallahassee","FL","32311","","","","",""
"True","3428","Thresher Drive","Tallahassee","FL","32312","","","","",""
"False","1051","March Rd.","Tallahassee","FL","32311","","","","",""
"False","","Millstone Farms, Inc.","Tallahassee","FL","32312-3813","","","","",""
"False","3335","Nottingham Dr.","Tallahassee","FL","32312","","","","",""
"True","3642","Oxhill Ct.","Tallahassee","FL","32308","","","","",""
"True","6431","Forward Pass Trl.","Tallahassee","FL","32309","","","","",""
"False","14824","Mahan Dr.","Tallahassee","FL","32309","","","","",""
"True","213","Whiddon Lake Rd.","Crawfordville","FL","32327","","","","",""
"True","821","Lake Ridge Dr","Tallahassee","FL","32312","","","","",""
"True","876","Maderia Cir.","Tallahassee","FL","32312","","","","",""
"True","1520","Killearn Center Blvd","Tallahassee","FL","32309","","","","",""
"True","1726","Indian Town Ln.","Tallahassee","FL","32312","","","","",""
"True","170","Corbett Lane","Crawfordville","FL","32327","","","","",""
"True","122","Tobacco Ln.","Havana","FL","32333","","","","",""
"True","1301","Blakemore Ct.","Tallahasee","FL","32317","","","","",""
"False","4751","Stoney Trace","Tallahassee","FL","32309","","","","",""
"True","1909","Sageway Dr.","Tallahassee","FL","32303","","","","",""
"True","","P.O. Box 3607","Tallahassee","FL","32315","","","","",""
"False","2121","Crestdale Dr","Tallahassee","FL","32308","","","","",""
"True","198","Sweetwater Cir","Crawfordville","FL","32327","","","","",""
"True","6661","Man O War Trail","Tallahassee","FL","32309","","","","",""
"False","3400","Merrimac Dr.","Tallahassee","FL","32312","","","","",""
"True","3205","Brookforest Dr.","Tallahassee","FL","32312","","","","",""
"False","2008","Chatsworth Way","Tallahassee","FL","32309","","","","",""
"True","5031","Valley Farm Rd","Tallahassee","FL","32303","","","","",""
"True","6484","Hidden Lakes Dr.","Tallahasse","FL","32311","","","","",""
"True","6449","Dancers Image Trl","Tallahassee","FL","32309","","","","",""
"True","2306","Alistair Ln.","Tallahassee","FL","32312","","","","",""
"True","1661","Harbor Club Dr","Tallahassee","FL","32308","","","","",""
"True","1909","Faulk Dr.","Tallahassee","FL","32303","","","","",""
"True","12408","Macao Ct.","Herndon","FL","20171","","","","",""
"True","4360","Millwood Ln","Tallahassee","FL","32312","","","","",""
"True","28","West Bayshore Drive","St George Island","FL","32328-2732","","","","",""
"True","9152","Hidden Creek Lane","Tallahassee","FL","32311","","","","",""
"False","2090","Padlock Place","Tallahassee","FL","32303","","","","",""
"True","153","Louis John Ln","Tallahassee","FL","32312","","","","",""
"True","2501","Napoleon Bonaparte Dr.","Tallahassee","FL","32308","","","","",""
"True","223","Country Club Drive","Havana","FL","32333","","","","",""
"True","1105","Corby Ct. E.","Tallahassee","FL","32317","","","","",""
"False","3520","Thomasville Road,","Tallahassee","FL","32309","","","","",""
"True","5491","Denargo Dr.","Tallahassee","FL","32303","","","","",""
"True","3128","Swaps Trl","Tallahassee","FL","32309","","","","",""
"False","47","St Marks Rise Rd","Crawfordville","FL","32327","","","","",""
"True","5300","Trout Trl.","Tallahassee","FL","32311","","","","",""
"True","932","Brick Yard Rd.","Midway","FL","32343","","","","",""
"False","3116","Gallimore Rd.","Tallahassee","FL","32305","","","","",""
"True","7573","Old St Augustine Rd","Tallahassee","FL","32311","","","","",""
"True","151","Duncan Dr.","Crawfordville","FL","32327","","","","",""
"False","","P.O. Box 14078","Tallahassee","FL","32317","","","","",""
"True","8012","Yellow Moon Dr.","Tallahassee","FL","32312","","","","",""
"False","343","Chocktaw Trl","Havana","FL","32333","","","","",""
"False","2850","Spaulding Rd","Tallahassee","FL","32303","","","","",""
"True","4507","Argyle Ln","Tallahassee","FL","32309","","","","",""
"True","2312","Monaco Dr.","Tallahassee","FL","32308","","","","",""
"True","6645","Quail Valley Rd.","Tallahassee","FL","32309","","","","",""
"True","2108","Delta Way","Tallahassee","FL","32303","","","","",""
"True","3447","Briar Branch Trl","Tallahassee","FL","32312","","","","",""
"True","8041","Archer Cir.","Tallahassee","FL","32309","","","","",""
"True","151","Bay Pine Dr","Crawfordville","FL","32327","","","","",""
"False","4911","Fred George Rd.","Tallahassee","FL","32303","","","","",""
"True","9955","Mahan Dr.","Tallahassee","FL","32309","","","","",""
"True","1304","Lansdowne Rd","Tallahassee","FL","32317","","","","",""
"False","50","Raven Run","Havana","FL","32333","","","","",""
"True","4937","West Joe Thomas Rd.","Tallahassee","FL","32310","","","","",""
"False","311","Cristobal Ct.","Tallahassee","FL","32303","","","","",""
"False","4921","Galloway Rd.","Graceville","FL","32440","","","","",""
"False","15020","Sunray Rd.","Tallahassee","FL","32309","","","","",""
"True","3715","Caracus Court","Tallahassee","FL","32303","","","","",""
"True","120","China Doll Dr.","Tallahassee","FL","32312","","","","",""
"False","1080","Point Milligan Rd.","Quincy","FL","32352","","","","",""
"True","10057","Neamathla Trl.","Tallahassee","FL","32312","","","","",""
"True","2232","Pineland Dr.","Tallahassee","FL","32317","","","","",""
"False","1571","Clifford Hill Ct","Tallahassee","FL","32308","","","","",""
"True","6000","Colonel Scott Dr.","Tallahassee","FL","32309","","","","",""
"True","4345","Crump Road","Tallahassee","FL","32309","","","","",""
"True","711","Spring Creek Highway","Crawfordville","FL","32327","","","","",""
"True","69","Eighth Ave","Crawfordville","FL","32327","","","","",""
"True","4498","Hansome Quarters","Tallahassee","FL","32309","","","","",""
"True","861","Deer Run","Havana","FL","32333","","","","",""
"True","162","Crestwood Dr","Crawfordville","FL","32327","","","","",""
"True","544","Moss View Way","Tallahassee","FL","32312","","","","",""
"True","7268","New Field Dr.","Tallahassee","FL","32303","","","","",""
"True","5997","Ponder Ln.","Tallahassee","FL","32309","","","","",""
"True","3322","Lucky Debonair Trl.","Tallahassee","FL","32309","","","","",""
"True","5557","Denargo Dr.","Tallahassee","FL","32303","","","","",""
"True","6759","Veterans Memorial Hwy.","Tallahassee","FL","32309","","","","",""
"True","6331","Carpenters Lane","Tallahassee","FL","32311","","","","",""
"False","3400","Old Bainbridge Rd.","Tallahassee","FL","32303","","","","",""
"True","2004","Dogwood Hill","Tallahassee","FL","32308","","","","",""
"False","","Saddle Rope Trl","Tallahassee","FL","32317","","","","",""
"True","243","Rosehill Ln.","Tallahassee","FL","32312","","","","",""
"False","4565","Louvinia CT","Tallahassee","FL","32311","","","","",""
"True","4763","Highgrove Rd.","Tallahassee","FL","32309","","","","",""
"True","6979","Standing Pine Ln.","Tallahassee","FL","32312","","","","",""
"True","2450","Tim Gamble Rd.","Tallahassee","FL","","","","","",""
"True","6416","Count Turf Trl","Tallahassee","FL","32309","","","","",""
"True","240","White House Rd.","Monticello","FL","32344","","","","",""
"True","490","Frank Shaw Road","Tallahassee","FL","32312","","","","",""
"False","4131","Pecan Branch","Tallahassee","FL","32309","","","","",""
"True","2270","East Washington St","Monticello","FL","32344","","","","",""
"True","706","Duparc Cir.","Tallahassee","FL","32312","","","","",""
"True","2616","Nez Perce Trl","Tallahassee","FL","32303","","","","",""
"True","1313","North Gadsden St","Tallahassee","FL","32303","","","","","REALTOR"
"False","425","Straw Lane","Tallahassee","FL","32305","","","","",""
"True","4841","Old Bainbridge Rd.","Tallahassee","FL","32303","","","","",""
"True","715","Gwen St.","Tallahassee","FL","32303","","","","",""
"True","4424","Argyle Ln.","Tallahassee","FL","32309","","","","",""
"True","1532","Avondale Way","Tallahassee","FL","","","","","",""
"False","133","Bay Pine Dr","Tallahassee","FL","32327","","","","",""
"False","","Tom Roberts rd","Tallahassee","FL","32305","","","","",""
"True","2796","McFarlane Ct.","Tallahassee","FL","32303","","","","",""
"False","1105","Lothian Dr.","Tallahassee","FL","32312","","","","",""
"True","8607","Bannerman Bluff Ct.","Tallahassee","FL","32312","","","","",""
"True","2004","Woodstock Ln","Tallahassee","FL","32303","","","","",""
"True","5003","Easy St.","Tallahassee","FL","32303","","","","",""
"False","8","Dorothy Loop","Crawfordville","FL","32327","","","","",""
"True","6062","Thackeray Ln,","Tallahassee","FL","32309","","","","",""
"True","7275","Wintercreek Lane","Tallahassee","FL","32309","","","","",""
"True","426","Rich Bay Rd.","Havana","FL","32333","","","","",""
"False","474","Parramore Way","Quincy","FL","32351","","","","",""
"False","13718","Sweet Magnolia Ln","Tallahassee","FL","32309","","","","",""
"True","6415","Dancers Image Trl.","Tallahassee","FL","32309","","","","",""
"True","1407","Shady Rest Rd","Havana","FL","32333","","","","",""
"True","985","Sora Rd.","Tallahassee","FL","32305","","","","",""
"False","40","Summer Brooke Ln","Tallahassee","FL","32327","","","","",""
"True","3439","Briar Branch Trl","Tallahassee","FL","32312","","","","",""
"False","3133","Whirlaway Trl","Tallahassee","FL","32309","","","","",""
"True","4218","Crawfordville Rd.","Tallahassee","FL","32305","","","","",""
"True","73","Mayfair Dr.","Crawfordville","FL","32327","","","","",""
"True","4721","Flowerwood Dr.","Tallahassee","FL","32303","","","","",""
"True","11","Pine Bark Ln","Midway","FL","32343","","","","",""
"False","4730","Stoney Trace","Tallahassee","FL","32309","","","","",""
"False","1546","-3 Metropolitan Blvd.","Tallahassee","FL","32308","","","","",""
"True","6475","Justin Grant Trl.","Tallahassee","FL","32309","","","","",""
"False","1319","Lanier Rd.","Havana","FL","32333","","","","",""
"True","3431","Thresher Dr.","Tallahassee","FL","32312","","","","",""
"True","90","Hogue Landing Ln","Quincy","FL","32351","","","","",""
"False","10032","Surrey Farms Lane","Tallahassee","FL","32309","","","","",""
"False","220","Bannerman Rd","Tallahassee","FL","32312","","","","",""
"True","4901","Parkview Ct.","Tallahassee","FL","32301","","","","",""
"True","7868","Reynolds Ct.","Tallahassee","FL","32312","","","","",""
"True","373","Haron Rd.","Monticello","FL","32344","","","","",""
"True","9923","Waters Meet Dr.","Tallahassee","FL","32312","","","","",""
"True","10","Serenity Ln","Quincy","FL","32344","","","","",""
"True","258","Triplet Rd.","Crawfordville","FL","32327","","","","",""
"True","1200","Coe Landing Rd","Tallahassee","FL","32310","","","","",""
"False","7928","Madrid Hill Dr.","Tallahassee","FL","32309","","","","",""
"True","3467","Valley Creek Drive","Tallahassee","FL","32312","","","","",""
"True","","Debra Brown","Valrico","FL","33594","","","","",""
"True","5988","Colonel Scott Dr.","Tallahassee","FL","32309","","","","",""
"True","4693","Miccosukee Rd.","Tallahassee","FL","32308","","","","",""
"True","250","Rudolph Ln.","Monticello","FL","32344","","","","",""
"True","7931","Bernard St.","Tallahassee","FL","32317","","","","",""
"True","1520","Killearn Center Blvd. Suite 100","Tallahassee","FL","32309","","","","",""
"False","749","Sunflower Rd.","Tallahassee","FL","32305","","","","",""
"True","518","Bobbin Brook Ln.","Tallahassee","FL","32312","","","","",""
"True","9019","Woodville Highway","Tallahassee","FL","32305","","","","","ATU MAINTENANCE"
"True","7825","Maclean Rd.","Tallahassee","FL","32312","","","","",""
"True","8278","Seirra Woods Ct.","Tallahassee","FL","32311","","","","",""
"False","8415","Bucklake Road","Tallahassee","FL","32317","","","","",""
"True","2809","Shamrock St. North","Tallahassee","FL","32309","","","","",""
"False","17995","Rakestraw Dr","Tallahassee","FL","32310","","","","",""
"True","2155","Delta Blvd.","Tallahassee","FL","32303","","","","",""
"True","1519","Killearn Center Blvd.","Tallahassee","FL","32309","","","","",""
"True","652","Forest Lair","Tallahassee","FL","32312","","","","",""
"True","8664","Alexandrite Ct.","Tallahassee","FL","32309","","","","",""
"False","4495","Capital Cir NW","Tallahassee","FL","32303","","","","",""
"True","2113","Trescott Dr.","Tallahassee","FL","32308","","","","",""
"True","2240","Holly Terrace Ln","Tallahassee","FL","32309","","","","",""
"True","10631","Old Centerville Rd","Tallahassee","FL","32309","","","","",""
"True","6476","Cavalcade Trl.","Tallahassee","FL","32309","","","","",""
"True","8","McMahan Dr.","Crawfordville","FL","32327","","","","",""
"True","7500","Creekridge Cir.","Tallahassee","FL","32309","","","","",""
"True","4642","Amber Valley Dr.","Tallahassee","FL","32312","","","","","REALTOR"
"True","2022","-2 Raymond Diehl Rd.","Tallahassee","FL","32308","","","","",""
"False","2103","QueensWood Dr","Tallahassee","FL","32303","","","","",""
"False","","P.O. Box 12833","Tallahassee","FL","32317","","","","",""
"True","6096","Ranch Rd.","Tallahassee","FL","32311","","","","",""
"True","1509","Quail Rd.","Tallahassee","FL","32317","","","","",""
"True","8458","Augustwood Ln.","Tallahassee FL","FL","32311","","","","",""
"True","1341","Alshire Ct. S.","Tallahassee","FL","32317","","","","",""
"True","3706","Corinth Dr.","Tallahassee","FL","32308","","","","",""
"True","6017","Leigh Read Rd.","Tallahassee","FL","32309","","","","",""
"True","3066","Hawks Glen","Tallahassee","FL","32312","","","","",""
"True","127","River Sink Road","Crawfordville","FL","32327","","","","",""
"True","4411","Rockingham Rd.","Tallahassee","FL","32303","","","","",""
"True","7962","Talley Ann Drive","Tallahassee","FL","32311","","","","",""
"True","40","Hunters Trace","Crawfordville","FL","32327","","","","",""
"True","214","Glenbrook Ct.","Tallahassee","FL","32317","","","","",""
"True","9070","Foxwood Dr.","Tallahassee","FL","32309","","","","",""
"True","6514","Fox Chase Ln.","Tallahassee","FL","32311","","","","",""
"True","3044","Adiron Way","Tallahassee","FL","32317","","","","",""
"True","5473","Tallapoosa Rd.","Tallahasse","FL","32303","","","","",""
"True","37","East Pine Ave","Eastpoint","FL","32328","","","","",""
"True","589","Old Magnolia Road","Crawfordville","FL","32327","","","","",""
"True","7821","Deer Pond Ln","Tallahassee","FL","32309","","","","",""
"True","2421","Bass Bay Drive","Tallahassee","FL","32312","","","","",""
"True","1922","Willow Run Dr.","Tallahassee","FL","32312","","","","",""
"False","7551","Bowling Green Dr","Tallahassee","FL","32309","","","","",""
"True","4128","Little Egypt Plantation Rd.","Tallahassee","FL","32309","","","","",""
"True","1273","Rich Bay Rd","Havana","FL","32333","","","","",""
"True","243","Rosehill N.","Tallahassee","FL","32312","","","","",""
"True","1841","Lakeshore Ln.","Tallahassee","FL","32312","","","","",""
"True","150","Shady Rest Rd.","Havana","FL","32333","","","","",""
"True","3116","Lookout Trail","Tallahassee","FL","32308","","","","",""
"True","4708","Capital cir NW","Tallahassee","FL","32303","","","","",""
"True","1215","Lonnie Raker Ln","Crawfordville","FL","32327","","","","",""
"True","7066","Grenville Road","Tallahassee","FL","32309","","","","",""
"True","6981","Napa Ct.","Tallahassee","FL","32317","","","","",""
"True","7481","Creek Ridge Cir.","Tallahassee","FL","32309","","","","",""
"False","4906","High Grove","Tallahassee","FL","32309","","","","",""
"True","1125","Groveland Hills Dr.","Tallahassee","FL","32317","","","","",""
"True","133","Meridian Hills Rd","Tallahassee","FL","32333","","","","",""
"True","733","Livingston Ct.","Tallahassee","FL","32303","","","","",""
"True","6191","Williams Rd","Tallahassee","FL","32311","","","","",""
"True","1712","Vineyard Way","Tallahassee","FL","32317","","","","",""
"True","717","Spiral Garden Way","Tallahassee","FL","32305","","","","",""
"True","4660","Cypress Point Rd.","Tallahassee","FL","32305","","","","",""
"True","8078","Blue Smoke Dr.","Tallahassee","FL","32312","","","","",""
"True","165","Quail Roost Dr.","Quincy","FL","","","","","",""
"True","4986","Mattydale Dr.","Tallahassee","FL","32311","","","","",""
"True","4145","Heniard Dr,","Tallahassee","FL","32302","","","","",""
"True","665","Litchfield Ct.","Tallahassee","FL","32312","","","","",""
"True","3181","Hawks Landing Drive","Tallahassee","FL","32309","","","","",""
"False","11409","Woodville Hwy","Tallahassee","FL","32305","","","","",""
"True","9073","Warbler Dr.","Tallahassee","FL","32305","","","","",""
"True","6512","War Admiral Trl.","Tallahassee","FL","32309","","","","",""
"True","1813","Lawhon Rd","Tallahassee","FL","32305","","","","",""
"True","8383","Chickasaw Trl.","Tallahassee","FL","32312","","","","",""
"False","15026","Wilrob Dr","Tallahassee","FL","32309","","","","",""
"True","5675","Santa Anita Dr","Tallahassee","FL","32309","","","","","ATU MAINTENANCE"
"True","2308","Delgado Dr.","Tallahassee","FL","32304","","","","",""
"True","409","Castleton Cir.","Tallahassee","FL","32312","","","","",""
"True","1425","Avondale Way","Tallahassee","FL","","","","","",""
"True","16","Larid Lane","Crawfordville","FL","32327","","","","",""
"True","1495","Twin Lakes Cir","Tallahassee","FL","32311","","","","",""
"False","14320","Mahan Dr","Tallahassee","FL","32309","","","","",""
"True","5986","Colonel Scott Dr","Tallahassee","FL","32309","","","","",""
"True","2641","Hastings Dr.","Tallahassee","FL","32303","","","","",""
"True","3750","Bobbin Brook Ct.","Tallahassee","FL","32312","","","","",""
"True","5405","Debbie Drive","Tallahassee","FL","32310","","","","",""
"True","5050","Barfield Rd","Tallahassee","FL","32308","","","","",""
"True","73","Fontaine Cir.","Crawfordville","FL","32327","","","","",""
"True","2888","Gerald Dr.","Tallahassee","FL","","","","","",""
"True","4133","Pecan Branch","Tallahassee","FL","32309","","","","",""
"True","9601","Miccosukee Road, MLC 86","Tallahassee","FL","32309","","","","",""
"True","179","Rose Hills Dr W.","Tallahassee","FL","32312","","","","",""
"True","7122","Upland Glade","Tallahassee","FL","32312","","","","",""
"True","3201","Jamey Rd","Tallahassee","FL","32309","","","","",""
"True","194","Rimfire Ln.","Havana","FL","32333","","","","",""
"False","3688","Woodhill Dr","Tallahassee","FL","32303","","","","",""
"True","8047","Evening Star Lane","Tallahassee","FL","32312","","","","",""
"False","3064","Bell Grove Dr","Tallahassee","FL","32308","","","","",""
"False","","PO Box 717","Woodville","FL","32362","","","","",""
"True","9516","Barwick Dr.","Tallahassee","FL","32305","","","","",""
"True","13227","Ringneck Rd.","Tallahassee","FL","32312","","","","",""
"True","3670","Flat Rd.","Tallahassee","FL","32303","","","","",""
"True","2953","Arendell Way","Tallahassee","FL","32308","","","","",""
"False","3005","Lakeshore Dr.","Tallahassee","FL","32312","","","","",""
"True","10079","Collins Hole Rd","Tallahassee","FL","32312","","","","",""
"False","4209","Ben Blvd","Tallahassee","FL","32303","","","","",""
"True","2048","Chimney Swift Hollow","Tallahassee","FL","32312","","","","",""
"True","4301","Sierra Woods Lane","Tallahassee","FL","32311","","","","",""
"True","6984","Alhambra Dr.","Tallahassee","FL","32317","","","","",""
"False","3020","Bell Grove Dr","Tallahassee","FL","32308","","","","",""
"True","1530","Metropolitan Blvd.","Tallahassee","FL","32308","","","","",""
"False","1216","Carson Dr.","Tallahassee","FL","32305","","","","",""
"True","735","Merry Robin Rd.","Tallahassee","FL","32310","","","","",""
"True","7113","Beech Ridge Trail","Tallahassee","FL","32312","","","","",""
"False","3092","Whirlaway","Tallahassee","FL","32309","","","","",""
"False","2064","Cynthia Dr","Tallahassee","FL","32303","","","","",""
"True","4612","St. Augustine Rd.","Monticello","FL","32344","","","","",""
"False","1519","Killearn Center Blvd","Tallahassee","FL","32309","","","","",""
"True","70","Pinewood St.","Crawfordville","FL","32327","","","","",""
"True","","James and Saudra Garner","Tallahassee","FL","32312","","","","",""
"True","122","Mill Branch Rd.","Tallahassee","FL","32312","","","","",""
"True","2543","Hwy., Ste. 1","Crawfordville","FL","32327","","","","",""
"False","4067","Centerville Rd","Tallahassee","FL","32308","","","","",""
"False","13829","Panther Plantation Way","Tallahassee","FL","32309","","","","",""
"True","1671","Martin Luther King Blvd.","Midway","FL","32343","","","","",""
"True","2335","Grassroots Way","Tallahassee","FL","32311","","","","",""
"True","39","Gossett Ln.","Crawfordville","FL","32327","","","","",""
"True","1800","Miccosukee Commons Dr. #1605","Tallahassee","FL","32308","","","","",""
"True","435","Harvey Mill Rd","Crawfordville","FL","32327","","","","",""
"True","1260","Jefferson Rd","Tallahassee","FL","32317","","","","",""
"True","2104","Napoleon Bonaparte Dr","Tallahassee","FL","32308","","","","",""
"True","548","Moss View Way","Tallahassee","FL","32312","","","","",""
"True","2085","Cynthia Dr.","Tallahassee","FL","32303","","","","",""
"True","1691","Timber Run","Havana","FL","32333","","","","",""
"True","9532","Oak Hollow Trail","Tallahassee","FL","32309","","","","",""
"True","16797","Talquin Springs Dr","Tallahassee","FL","32310","","","","",""
"True","5313","Touraine Dr.","Tallahassee","FL","32308","","","","",""
"True","3443","Collins Landing Rd.","Tallahassee","FL","32310","","","","",""
"True","5655","Tea Rose Trail","Tallahassee","FL","32311","","","","",""
"True","2920","Quail Rise Ct","Tallahassee","FL","32309","","","","",""
"True","2321","Haverhill Rd.","Tallahassee","FL","32312","","","","",""
"True","10601","Gerrell Rd","Tallahassee","FL","32305","","","","",""
"False","3971","Camino Real","Tallahassee","FL","32311","","","","",""
"True","1007","Heartside Run","Tallahassee","FL","32317","","","","",""
"False","2286","-3 Wednesday St.","Tallahassee","FL","32308","","","","",""
"True","4972","Glen Castle Dr.","Tallahassee","FL","32309","","","","",""
"True","444","Shadeville Rd.","Crawfordville","FL","32327","","","","",""
"True","916","Conyers St.","Havana","FL","32333","","","","",""
"True","23355","Nutall Rise","Lamont","FL","32336","","","","",""
"True","1345","Barineau Rd","Tallahassee","FL","32304","","","","",""
"True","165","Parkside Cir.","Crawfordville","FL","32327","","","","",""
"True","2409","Napoleon Bonaparte","Tallahassee","FL","32308","","","","",""
"False","8691","Alexandrite Ct.","Tallahassee","FL","32309","","","","",""
"True","6504","Demascus Ct.","Tallahassee","FL","32309","","","","",""
"False","2003","Sandcastle Dr.","Tallahassee","FL","32308","","","","",""
"True","7217","Anhinga Farms Rd.","Tallahassee","FL","32309","","","","",""
"True","9171","Old Chemony Rd.","Tallahassee","FL","32309","","","","",""
"True","4221","Carnwath Rd.","Tallahassee","FL","32303","","","","",""
"True","1801","Bridgemont Trl.","Tallahassee","FL","32309","","","","",""
"True","6240","Bradfordville Rd.","Tallahassee","FL","32309","","","","",""
"False","3971","Tallavana Trl","Havana","FL","32333","","","","",""
"True","1025","Backforest Ln.","Tallahassee","FL","32305","","","","",""
"True","2268","Wednesday St.","Tallahassee","FL","32308","","","","","REALTOR"
"True","14025","Owl Hollow Crest","Tallahassee","FL","32312","","","","",""
"True","14033","Owls Hollow Crest Rd","Tallahassee","FL","32312","","","","",""
"True","2041","Chatsworth Way","Tallahassee","FL","32312","","","","",""
"True","4907","Lester Rd.","Tallahassee","FL","32317","","","","",""
"True","805","Maderia Cir.","Tallahassee","FL","32312","","","","",""
"True","4527","Camden Rd.","Tallahassee","FL","32303","","","","",""
"True","2201","Bourgogne Dr.","Tallahassee","FL","32308","","","","",""
"True","3225","Affirmed Ct.","Tallahassee","FL","32309","","","","",""
"True","3436","Hawks Hill Trl","Tallahassee","FL","32312","","","","",""
"True","278","Cripple Creek Rd.","Havana","FL","32333","","","","",""
"True","4408","Bright Dr.","Tallahassee","FL","32303","","","","",""
"True","4580","Berklie Dr.","Tallahassee","FL","32308","","","","",""
"True","1320","Landsdowne Rd.","Tallahassee","FL","32317","","","","",""
"True","3157","Whirlaway Trail","Tallahassee","FL","32309","","","","",""
"True","6427","Stone Street Trl","Tallahassee","FL","32309","","","","",""
"True","181","Doctor MLK Jr Memorial Rd","Crawfordville","FL","32327","","","","",""
"True","5802","Ashanti Way","Tallahassee","FL","32311","","","","",""
"False","15211","Ironwood Meadow Ln.","Cypress","FL","77429","","","","",""
"False","3400","Daylily Ln","Tallahassee","FL","32308","","","","",""
"True","3153","Spring Creek HWY","Crawfordville","FL","32327","","","","",""
"False","919","Spring Creek HWY","Crawfordville","FL","32327","","","","",""
"True","3025","South Shore Circle","Tallahassee","FL","32312","","","","",""
"False","401","Meadow Ridge Dr.","Tallahassee","FL","32312","","","","",""
"False","4199","Brewster Rd","Tallahassee","FL","32308","","","","",""
"True","2811","W Orange Ave","Tallahassee","FL","32310","","","","",""
"True","6334","Sue Page Dr.","Tallahasse","FL","32310","","","","",""
"True","6775","Circle J Drive","Tallahassee","FL","32312","","","","",""
"True","2049","Harriet Dr.","Tallahassee","FL","32303","","","","",""
"True","1504","Seminole Dr.","Tallahassee","FL","32301","","","","",""
"True","8658","Cabin Hill Rd","Tallahassee","FL","32311","","","","",""
"True","809","Alice Wester Dr.","Tallahassee","FL","32310","","","","",""
"True","2301","Napoleon Bonaparte Dr.","Tallahassee","FL","32308","","","","",""
"False","2888","Bell Dr","Tallahassee","FL","32303","","","","",""
"True","1140","Capital Circle SE Suite 12","Tallahassee","FL","32301","","","","",""
"True","7828","Briarcreek Rd. W.","Tallahassee","FL","32312","","","","",""
"True","3704","Danesborough Dr.","Tallahassee","FL","32303","","","","",""
"True","2440","Monaco Dr.","Tallahassee","FL","32309","","","","",""
"True","821","Arlington Road","Tallahassee","FL","32312","","","","",""
"True","1851","White house Rd.","Monticello","FL","32344","","","","",""
"False","2705","Hastings Dr","Tallahassee","FL","32303","","","","",""
"True","5462","Tallapoosa Rd","Tallahassee","FL","32303","","","","",""
"True","3112","Elwood Trl","Tallahassee","FL","32309","","","","",""
"True","11047","Tung Grove Road","Tallahassee","FL","32317","","","","",""
"True","3644","Harpers Ferry Dr.","Tallahassee","FL","32308","","","","",""
"True","5096","Easy St.","Tallahassee","FL","32303","","","","",""
"True","474","Whiddon Lake Rd","Crawfordville","FL","32327","","","","",""
"True","397","Ridgeland Dr.","Tallahassee","FL","32312","","","","",""
"False","1519","Killearn Center Blvd.","Tallahassee","FL","32309","","","","",""
"True","190","Stillwater Ln.","Havana","FL","32333","","","","",""
"True","9832","Thunder Hill Trl.","Tallahassee","FL","32312","","","","",""
"False","1427","Comanche Ln.","Tallahassee","FL","32304","","","","",""
"True","5054","Walnut Grove Ln.","Tallahassee","FL","32305","","","","",""
"True","6555","Crooked Creek Rd.","Tallahassee","FL","32311","","","","",""
"True","711","Duparc Circle","Tallahassee","FL","32312","","","","",""
"True","4318","Sierra Woods Run","Tallahassee","FL","32311","","","","",""
"True","5051","Quail Valley Rd.","Tallahassee","FL","32309-6687","","","","",""
"False","2655","Hwy # B,","Crawfordville","FL","32327","","","","",""
"True","190","KINSEY RD","CRAWFORDVILLE","FL","32327","","","","","ATU MAINTENANCE"
"False","4025","Deer Lane Dr.","Tallahassee","FL","32312","","","","",""
"True","1010","Sharer Court, Unit 20","Tallahassee","FL","32312","","","","",""
"True","5991","Thornton Ln.","Tallahassee","FL","","","","","",""
"False","","Sparkleberry Blvd","Quincy","FL","32351","","","","",""
"False","18476","Talquin Dr.","Tallahassee","FL","32310","","","","",""
"True","179","Chocktaw Rd.","Crawfordville","FL","32327","","","","",""
"True","3641","Parsonage Ct.","Tallahassee","FL","32308","","","","",""
"True","8243","Queen Anna Dr.","Tallahassee","FL","32317","","","","",""
"True","2805","Topaz Way","Tallahassee","FL","32309","","","","",""
"True","4167","Louvinia Dr.","Tallahassee","FL","32311","","","","",""
"False","4917","Vernon Rd","Tallahassee","FL","32317","","","","",""
"True","1500","Apalachee Pkwy","Tallahassee","FL","32301","","","","",""
"True","117","Woodward Avenue","Tallahassee","FL","32306","","","","",""
"True","2573","Barrington Cir.","Tallahassee","FL","32308","","","","",""
"True","1421","Silver Pine","Tallahassee","FL","32312","","","","",""
"True","518","Frank Shaw Rd","Tallahassee","FL","32312","","","","",""
"True","3041","Harpers Ferry","Tallahassee","FL","32308","","","","",""
"True","7414","Banning Way","Tallahassee","FL","32309","","","","",""
"True","3028","Pasturewood Ln.","Tallahassee","FL","32309","","","","",""
"True","319","RoseHIll Dr E,","Tallahassee","FL","32312","","","","",""
"True","7986","Tally Ann","Tallahassee","FL","32311","","","","",""
"True","8404","Old Post Rd.","Tallahassee","FL","32311","","","","",""
"True","1742","Armistead Place","Tallaahassee","FL","32308","","","","",""
"True","45","Still Water Lane","Havanna","FL","32333","","","","",""
"True","3535","N. Meridian Rd.","Tallahassee","FL","32312","","","","",""
"True","5063","Boxwood Ct.","Tallahassee","FL","32303","","","","",""
"True","7585","Old. St. Augustine Rd.","Tallahassee","FL","32311","","","","",""
"True","2424","Monaco Dr.","Tallahassee","FL","32308","","","","",""
"True","1913","Harriet Dr.","Tallahassee","FL","32303","","","","",""
"False","","Lloyd Creek Rd","Monticello","FL","32344","","","","","N OF 3383 LLOYD CREEK"
"False","4600","Highgrove Rd","Tallahassee","FL","32309","","","","",""
"True","1465","Manor House Drive","Tallahassee","FL","32312","","","","",""
"True","69","Anna Dr.","Crawfordville","FL","32327","","","","",""
"True","1220","Sedgefield","Tallahassee","FL","32301","","","","",""
"False","3307","Dartmoor Dr.","Tallahassee","FL","32312","","","","","NEED 911 ADDRESS"
"False","1161","Virgil Rd.","Tallahasssee","FL","32311","","","","",""
"True","855","San Bonita Blvd.","Havana","FL","32333","","","","",""
"True","328","Anton Dr.","Tallahassee","FL","32312","","","","",""
"True","9516","Sunhawk Blvd.","Tallahassee","FL","32308","","","","",""
"True","3435","Treaty Oak Trl.","Tallahassee","FL","32312","","","","",""
"True","9931","Leaping Deer Ln.","Tallahassee","FL","32309","","","","",""
"True","4041","McLeod Dr.","Tallahassee","FL","32303","","","","",""
"False","1200","Tapley Trail","Tallahassee","FL","32311","","","","",""
"True","6616","Tim Tam Trl","Tallahassee","FL","32309","","","","",""
"True","13470","Rabbit Run Trl.","Tallahassee","FL","32309","","","","",""
"True","6700","Apollo Trl","Tallahassee","FL","32309","","","","",""
"False","3000","S. Adams St.","Tallahassee","FL","32301","","","","",""
"True","2990","Byington Cir.","Tallahassee","FL","32303","","","","",""
"True","5715","Ed White Ct.","Tallahassee","FL","32311","","","","",""
"True","11","Powhatan St.","Crawfordville","FL","32327","","","","",""
"True","6278","Crestwood Drive","Tallahassee","FL","","","","","",""
"True","6800","Ajax Rd,","Tallahassee","FL","32311","","","","",""
"True","1987","Collins Landing Rd.","Tallahassee","FL","32310","","","","",""
"False","","turkey creek rd","Tallahassee","FL","32321","","","","",""
"True","7204","Newfield Dr.","Tallahassee","FL","32303","","","","",""
"False","1881","Chardonnay pl.","Tallahassee","FL","32317","","","","",""
"False","38","Eagle Ct","Havana","FL","32333","","","","",""
"True","8633","Coach Rd","Tallahassee","FL","32309","","","","",""
"True","6621","Man O War Trail","Tallahassee","FL","32309","","","","",""
"True","4902","Center Drive","Tallahassee","FL","32305","","","","",""
"True","1925","Shadyoaks Dr.","Tallahassee","FL","32303","","","","",""
"True","3119","Middlebrooks Cir","Tallahassee","FL","32312-2449","","","","",""
"True","811","Conyers St.","Havana","FL","32333","","","","",""
"True","2712","Charleston Ct.","Tallahassee","FL","32309","","","","",""
"False","3998","Camino Real","Tallahassee","FL","32311","","","","",""
"True","118","Kings Rd.","Havana","FL","32333","","","","",""
"False","1801","Sageway Dr","Tallahassee","FL","32303","","","","",""
"True","4204","Stoney Point Drive","Tallahassee","FL","32309","","","","",""
"True","112","Lake Ellen Circle","Crawfordville","FL","32327","","","","",""
"True","1550","-1 Village Square Blvd.","Tallahassee","FL","32309","","","","",""
"True","401","Live Oak Ln","Havana","FL","32333","","","","",""
"False","1830","Bridgmont Trl","Tallahassee","FL","32312","","","","",""
"True","3092","Harpers Ferry Dr.","Tallahassee","FL","32308","","","","",""
"True","7280","Anglewood Ln.","Tallahassee","FL","32309","","","","",""
"False","1930","Gloria Dr.","Tallahassee","FL","32303","","","","",""
"False","893","-1188 Fax","Tallahassee","FL","32309","","","","",""
"True","6938","Tom Roberts Rd","Tallahassee","FL","32304","","","","",""
"False","4853","Old Bainbridge Rd","Tallahassee","FL","32303","","","","",""
"True","2564","Tiny Leaf Rd.","Tallahassee","FL","32305","","","","",""
"True","2710","N. Monroe St.","Tallahassee","FL","32311","","","","",""
"True","2273","Stonewood Ln","Tallahassee","FL","32305","","","","",""
"True","5709","Split Oak Lane","Tallahassee","FL","32303","","","","",""
"True","151","Woodrich Rd","Crawfordville","FL","32327","","","","",""
"True","315","Sweetwater Cir.","Tallahassee","FL","32327","","","","",""
"True","1834","Mahan Drive","Tallahassee","FL","32308","","","","",""
"True","215","Tradition Way","Monticello","FL","32344","","","","",""
"True","4120","Heniard Dr.","Tallahassee","FL","32303","","","","",""
"True","6723","West Capps Hwy","Monticello","FL","32344","","","","",""
"True","2037","Longview Dr.","Tallahassee","FL","32303","","","","",""
"True","9426","Huckabee Ct.","Tallahassee","FL","32311","","","","",""
"True","8036","Red Eagle Dr.","Tallahassee","FL","32312","","","","",""
"True","3345","Barrow Hill Trl","Tallahassee","FL","32312","","","","",""
"True","522","Frank Shaw Rd","Tallahassee","FL","32312","","","","",""
"True","9012","Aspen Ct.","Tallahassee","FL","32305","","","","",""
"True","2624","Stonegate Dr.","Tallahassee","FL","32308","","","","",""
"True","401","Mistletoe Ln.","Monticello","FL","32344","","","","",""
"True","7378","Anglewood Lane","Tallahassee","FL","32308-6525","","","","",""
"True","1206","Southern Dr.","Tallahassee","FL","32305","","","","",""
"False","4007","Apalachee Pkwy.","Tallahassee","FL","32311","","","","",""
"True","807","Annawood Dr.","Tallahassee","FL","32305","","","","",""
"True","4442","Sweetleaf Ln.","Tallahassee","FL","32303","","","","",""
"True","165","Lance Ln","Crawfordville","FL","32327","","","","",""
"True","4435","Camden Rd.","Tallahassee","FL","32303","","","","",""
"True","7451","Banning Way","Tallahassee","FL","32310","","","","",""
"True","","P.O. Box 180956","Tallahassee","FL","32318","","","","",""
"True","3336","Old St Augustine Way","Tallahassee","FL","32311","","","","",""
"True","545","Scotland Rd.","Havana","FL","32333","","","","",""
"False","1294","Smoke Rise Lane","Tallaahassee","FL","32317","","","","",""
"True","1050","San Bonita Blvd.","Havana","FL","32333","","","","",""
"True","10800","Moccasin Gap Rd.","Tallahassee","FL","32309","","","","",""
"True","1505","Meeks Rd.","Tallahassee","FL","32317","","","","",""
"True","6748","Secretariat Drive","Tallahassee","FL","32308-1823","","","","",""
"True","3264","Black Gold","Tallahassee","FL","32309","","","","",""
"True","700","Forest Lair","Tallahassee","FL","","","","","",""
"False","2259","Stonewood Ln","Tallahassee","FL","32305","","","","",""
"False","4571","Louvinia Ct.","Tallahassee","FL","32311","","","","",""
"False","5120","Tudie-n-Sugar Ln","Tallahassee","FL","32309","","","","",""
"False","8751","Centerville Rd","Tallahassee","FL","32309","","","","",""
"True","4533","Highgrove Rd","Tallahassee","FL","32309","","","","",""
"True","3461","Lakeshore Dr.","Tallahassee","FL","32312","","","","",""
"True","2004","Amboise Ct.","Tallahassee","FL","32308","","","","",""
"True","3681","Letitia Ln","Tallahassee","FL","32312","","","","",""
"True","5515","Touraine Dr.","Tallahassee","FL","32308","","","","",""
"True","4047","Juniper Rd.","Greensboro","FL","32330","","","","",""
"True","2707","Killarney Way","Tallahassee","FL","32308","","","","",""
"True","34","Three Sisters","Crawfordville","FL","32327","","","","",""
"True","5224","Velda Dairy rd","Tallahassee","FL","32309","","","","",""
"True","4572","Berklie Dr.","Tallahassee","FL","32317","","","","",""
"True","2111","Lake Forest Dr.","Tallahassee","FL","32303","","","","",""
"True","3640","Pine Tip Rd.","Tallahassee","FL","32312","","","","",""
"True","526","E. Park Avenue","Tallahassee","FL","32301","","","","",""
"False","4051","Sunhawk Blvd.","Tallahassee","FL","32309","","","","",""
"True","203","Forest Lane","Crawfordville","FL","32327","","","","",""
"False","1682","Metropolitan Cir.","Tallahassee","FL","32308","","","","",""
"False","9061","Ravena Rd.","Tallahassee","FL","32309","","","","",""
"False","2205","Wood Duck Way","Tallahassee","FL","32312","","","","",""
"False","2025","Faulk Dr","Tallahassee","FL","32309","","","","",""
"True","1546","Twin Lakes Pkw","Tallahassee","FL","32311","","","","",""
"True","1248","White Star Ln.","Tallahassee","FL","32312","","","","",""
"True","3722","Bentley Dr.","Tallahassee","FL","32303","","","","",""
"True","1999","Wildridge Dr.","Tallahassee","FL","32303","","","","",""
"True","159","Freebird Rd.","Monticello","FL","32344","","","","",""
"True","405","Castleton Cir.","Tallahassee","FL","32312","","","","",""
"True","8839","Holly Brook Trl","Tallahassee","FL","32312","","","","",""
"True","3621","Moody Trail","Tallahassee","FL","32309","","","","",""
"True","","Keller Williams Realty","","FL","","","","","",""
"False","88","Atkinson Rd","Crawfordville","FL","32327","","","","",""
"True","44","Slashpine Cir","Crawfordville","FL","32327","","","","",""
"True","214","Rose Hill Ln","Tallahassee","FL","32312","","","","",""
"True","3085","Whirlaway Trl","Tallahassee","FL","32309","","","","",""
"False","2727","Apalachee Parkway","Tallahassee","FL","32301","","","","",""
"True","869","Sunflower Rd.","Tallahassee","FL","32305","","","","",""
"True","3622","Ocleon Dr","Tallahassee","FL","32312","","","","","REALTOR"
"True","3303","Thomasville Road","Tallahassee","FL","32308","","","","",""
"True","7771","Bass Ridge Trl.","Tallahassee","FL","32312","","","","",""
"True","5623","Westview Ln","Tallahassee","FL","32310","","","","",""
"True","9503","Mount Everest Lane","Tallahassee","FL","32309","","","","",""
"False","3977","Elder Ln.","Tallahassee","FL","32303","","","","",""
"True","1573","Clifford Hill Rd","Tallahassee","FL","32308","","","","",""
"True","4141","Kimberly Cir.","Tallahassee","FL","32309","","","","",""
"False","3303","Thomasville Rd. Suite 201","Tallahassee","FL","32308","","","","",""
"False","8058","Geenmont Ave","Tallahassee","FL","32317","","","","",""
"False","","PO Box 1471","Woodville","FL","32362","","","","",""
"True","7630","Crescent Moon Ln","Tallahassee","FL","32309","","","","",""
"False","401","Locksly Ln","Tallahassee","FL","32312","","","","",""
"True","9718","Waters Meet Dr.","Tallahassee","FL","32312","","","","",""
"True","8702","Miles Johnson Rd.","Tallahassee","FL","32308","","","","",""
"True","6531","Kingman Trl.","Tallahassee","FL","32309","","","","",""
"True","243","Cochran Rd,","Chattahoochee","FL","32324","","","","",""
"False","","Greenway Dr","Tallahassee","FL","32333","","","","",""
"True","1520","Killearn Center Boulevard","Tallahassee","FL","32309","","","","",""
"False","1114","Eureka Ct.","Tallahassee","FL","32317","","","","",""
"True","6985","Grenville Rd.","Tallahassee","FL","32309","","","","",""
"True","6832","Tomy Lee Trl.","Tallahassee","FL","32309","","","","",""
"False","159","Harmony Ln","Havana","FL","32333","","","","",""
"True","1331","Success Way","Tallahassee","FL","32305","","","","",""
"True","3310","Lord Murphy Trl.","Tallahassee","FL","32309","","","","",""
"True","6008","Leigh Read Rd.","Tallahassee","FL","32309","","","","",""
"True","6468","Williams Rd.","Tallahassee","FL","32311","","","","",""
"True","1487","Jeremy Dr.","Tallahassee","FL","32305","","","","",""
"True","6151","Pickwick St.","Tallahassee","FL","32309","","","","",""
"False","2048","Dyrehaven Ct","Tallahassee","FL","32317","","","","",""
"True","511","Bobbin Brook LN","Tallahassee","FL","32312","","","","",""
"False","13","Neck Rd","Cranbury","FL","8512","","","","",""
"True","4240","Buttercup Way.","Tallahassee","FL","32311","","","","",""
"True","8066","Christina Rd.","Tallahassee","FL","32305","","","","",""
"True","7816","Maclean Rd","Tallahassee","FL","32312","","","","",""
"True","533","Frank Shaw Rd.","Tallahassee","FL","32312","","","","",""
"True","6039","Ranch Road","Tallahassee","FL","32311","","","","",""
"False","3032","Harpers Ferry","Tallahassee","FL","32308","","","","",""
"True","128","Garner Cir N","Crawfordville","FL","32327","","","","",""
"True","6464","Williams Rd.","Tallahassee","FL","32311","","","","",""
"True","2854","Laris Dr.","Tallahassee","FL","","","","","",""
"True","115","captain james","Crawfordville","FL","32327","","","","",""
"True","199","Mill Branch Rd","Tallahassee","FL","32312","","","","",""
"False","4501","Handsome Quarters","Tallahassee","FL","32309","","","","",""
"True","2269","Chaires Cross Rd.","Tallahassee","FL","32317","","","","",""
"True","2785","Arendell Way","Tallahassee","FL","32308","","","","",""
"True","","La'Shanda Jones","Tallahassee","FL","32311","","","","",""
"True","6505","Allan A Dale Trl.","Tallahassee","FL","32309","","","","",""
"False","196","Lee Miller Road","Crawfordville","FL","32327","","","","",""
"True","182","Ponderosa Cir.","Tallahassee","FL","32343","","","","",""
"True","3651","Dexter Dr.","Tallahassee","FL","32312","","","","",""
"True","1615","Alshire Ct. N","Tallahassee","FL","32317","","","","",""
"True","407","Nottingham Ct.","Tallahassee","FL","32312","","","","",""
"False","240","Havana Hwy","Quincy","FL","32352","","","","",""
"True","3100","Whirlaway Trl.","Tallahassee","FL","32309","","","","",""
"True","6600","Reigh Count Trl","Tallahassee","FL","32309","","","","",""
"True","2617","Onyx Trl","Tallahassee","FL","32303","","","","",""
"True","3659","Dexter Dr.","Tallahassee","FL","32312","","","","",""
"False","138","Hardwood Hollow","Havana","FL","32333","","","","",""
"True","1232","Winifred Dr.","Tallahassee","FL","32308","","","","",""
"True","7012","Grenville Rd.","Tallahassee","FL","32309","","","","",""
"True","18","Kings Rd.","Havana","FL","32333","","","","",""
"True","3508","Whirlaway Trl","Tallahassee","FL","32309","","","","",""
"True","2590","Southwood Plantation Rd.","Tallahassee","FL","32311","","","","",""
"True","999","Old Farm Rd","Tallahassee","FL","32317","","","","",""
"False","","Job: 6426 Weeping Willow Way","Tallahassee","FL","32311","","","","",""
"True","250","Audubon Dr.","Havana","FL","32333","","","","",""
"True","7615","Buck Lake Rd.","Tallahassee","FL","32317","","","","",""
"True","1809","Morning Star Ln.","Tallahassee","FL","32312","","","","",""
"True","10080","Journeys End.","Tallahassee","FL","32312","","","","",""
"True","205","Forest Lane","Crawfordville","FL","32327","","","","",""
"True","5008","Brill Pt","Tallahasee","FL","32312","","","","",""
"False","1884","Raymond Tucker Rd","TALLAHASSEE","FL","32311","","","","",""
"True","3209","Yorktown Drive","Tallahassee","FL","32312","","","","",""
"True","19320","Blokham Cuttoff","Tallahassee","FL","32310","","","","",""
"False","1586","Yearling Trl","Tallahassee","FL","32317","","","","",""
"True","9094","Apalachee Pkwy","Tallahassee","FL","32311","","","","",""
"False","8020","Lantern Light Rd.","Tallahassee","FL","32312","","","","",""
"True","1404","Woodgate Way","Tallahassee","FL","32308","","","","",""
"True","","Armor Realty","","FL","","","","","",""
"False","1724","W Page Rd","Tallahassee","FL","32305","","","","",""
"False","1989","Hickory Ln","Tallahassee","FL","32305","","","","",""
"False","1145","San Bonita Blvd.","Havana","FL","32333","","","","",""
"True","3473","Plowshare Rd.","Tallahassee","FL","32309","","","","",""
"True","3023","Verdura Oaks Trl","Tallahassee","FL","32311","","","","",""
"False","3764","Bobbin Brook Circle","Tallahassee","FL","32312","","","","",""
"True","9344","Stonewood Ln","Tallahassee","FL","32305","","","","",""
"True","3067","Connector Dr.","Tallahassee","FL","32303","","","","",""
"True","3137","Middlebrooks Cir.","Tallahassee","FL","32312","","","","",""
"True","6","Inez Lane","Crawfordville","FL","32327","","","","",""
"False","243","Robinhood Ct","Tallahassee","FL","32312","","","","",""
"True","1907","Benjamin Chaires Rd.","Tallahassee","FL","32317","","","","",""
"True","55","Mayfair Dr.","Crawfordville","FL","32327","","","","",""
"True","2324","Tuscaville Rd","Tallahassee","FL","32312","","","","",""
"False","3571","Lakeshore Dr.","Tallahassee","FL","32312","","","","",""
"True","1506","Meeks Road","Tallahassee","FL","32317","","","","",""
"True","37","Grapevine Dr.","Crawfordville","FL","32327","","","","",""
"True","241","Intrepid Court","Tallahassee","FL","32312","","","","",""
"True","5141","Ile De France Dr.","Tallahassee","FL","32308","","","","",""
"False","2126","La Rochelle Dr","Tallahassee","FL","32308","","","","",""
"True","14316","John Henry Rd.","Tallahassee","FL","32312","","","","",""
"True","2493","Arvah Branch Blvd.","Tallahassee","FL","32317","","","","",""
"True","7066","Standing Pines Lane","Tallahassee","FL","32312","","","","",""
"False","133","Buck Lake Rd.","Tallahassee","FL","32317","","","","",""
"True","2912","Quail Rise Ct.","Tallahassee","FL","32309","","","","",""
"True","9269","Shady Crest Ln.","Tallahassee","FL","32312","","","","",""
"True","6404","Forward Pass Trl.","Tallahassee","FL","32309","","","","",""
"True","1935","Faulk Dr","Tallahassee","FL","32303","","","","",""
"True","3770","Bobbin Mill Rd","Tallahassee","FL","32312","","","","",""
"True","532","Frank Shaw Road","Tallahassee","FL","32312","","","","",""
"True","5691","Ed White Ct.","Tallahassee","FL","32311","","","","",""
"True","2905","Joyce Dr.","Tallahassee","FL","32303","","","","",""
"True","8265","Sierra Woods Dr.","Tallahassee","FL","32311","","","","",""
"True","4794","High Grove Rd","Tallahassee","FL","32309","","","","",""
"True","9179","Ravena Rd.","Tallahassee","FL","32309","","","","",""
"False","416","Timberlane Rd","Tallahassee","FL","32312","","","","",""
"False","2429","Chateau Lane","TALLAHASSEE","FL","32311","","","","",""
"False","1520","Killearn Ctr. Blvd","Tallahassee","FL","32309","","","","",""
"True","7030","Dardwood Ln.","Tallahassee","FL","32312","","","","",""
"False","3020","Tisha Dr.","Tallahassee","FL","32309","","","","",""
"True","4013","Harpers Ferry Dr","Tallahassee","FL","32309","","","","",""
"True","2620","Lucerne Dr.","Tallahassee","FL","32303","","","","",""
"True","3158","Lakeshore Dr.","Tallahassee","FL","32312","","","","",""
"False","1509","Quail Rd","Tallahassee","FL","32317","","","","",""
"False","32","Lainey Lane","Crawfordville","FL","32327","","","","",""
"True","30","Kelley Ct","Crawfordville","FL","32327","","","","",""
"True","90","Newton Rd.","Crawfordville","FL","32327","","","","",""
"True","4774","Highgrove Rd.","Tallahassee","FL","32309","","","","",""
"True","3651","Harpers Ferry Ct.","Tallahassee","FL","32317","","","","",""
"False","8889","Calddonian Ct.","Tallahassee","FL","32312","","","","",""
"False","2039","Summer Lane","Tallahassee","FL","32305","","","","",""
"True","8115","Tennyson Dr.","Tallahassee","FL","32309","","","","",""
"True","729","Lake Ridge Rd.","Tallahassee","FL","32312","","","","",""
"True","7242","E Washington St","Monticello","FL","32344","","","","",""
"True","10508","Lake Iamonia Dr","Tallahassee","FL","32312","","","","",""
"True","9823","Dulce Maria Dr.","Tallahassee","FL","32317","","","","",""
"False","6509","Demascus Ct.","Tallahassee","FL","32308","","","","",""
"False","3203","Brookforest Dr","Tallahassee","FL","32312","","","","",""
"False","2050","Capital Circle NE","Tallahassee","FL","32308","","","","",""
"True","1859","Folkstone Rd","Tallahassee","FL","32312","","","","","WEBSITE REFERRAL"
"True","6593","Lake Piagah Dr.","Tallahasse","FL","32309","","","","",""
"True","5356","Grove Valley Rd.","Tallahassee","FL","32303","","","","",""
"True","1525","Capital Circle NW, #1","Tallahassee","FL","32303","","","","",""
"True","6096","Pimlico Ct.","Tallahassee","FL","32309","","","","",""
"False","4320","Slash Pine Ln.","Tallahassee","FL","32305","","","","",""
"True","7000","Atascadero Ln","Tallahassee","FL","32317","","","","",""
"True","656","Forest Lair","Tallahassee","FL","32312","","","","",""
"True","3881","Tan Mouse Rd.","Tallahassee","FL","32309","","","","",""
"True","4384","Safari Run","Tallahassee","FL","32309","","","","",""
"False","8053","Tennyson Dr.","Tallahassee","FL","32309","","","","",""
"False","5369","High Colony Dr.","Tallahassee","FL","32308","","","","",""
"False","338","Heide Lane","Havana","FL","32333","","","","",""
"True","3488","Cedarwood Trl","Tallahassee","FL","32312","","","","",""
"True","3573","Velda Woods Ln.","Tallahassee","FL","32309","","","","",""
"True","10259","F A Ash Way","Tallahassee","FL","32311","","","","",""
"True","7901","McClure Ct","Tallahassee","FL","32312","","","","",""
"False","4913","High Grove Rd.","Tallahassee","FL","32309","","","","",""
"True","4003","Buster Rd","Tallahassee","FL","32305","","","","",""
"True","4715","Crump Rd.","Tallahassee","FL","32309","","","","",""
"True","1440","Ox Bottom Rd.","Tallahassee","FL","32312","","","","",""
"True","2300","Kami Creek Trail","Tallahassee","FL","32303","","","","",""
"True","4174","Darby Dr.","Tallahassee","FL","32310","","","","",""
"True","11844","Grazing Buck Lane","Tallahassee","FL","32317","","","","",""
"True","584","Frank Shaw Rd.","Tallahassee","FL","32312","","","","",""
"False","4017","Brandon Hill","Tallahassee","FL","32309","","","","",""
"True","3600","Moss Point Rd","Tallahassee","FL","32312","","","","",""
"True","2399","Clara Kee Blvd","Tallahassee","FL","32303","","","","",""
"False","5390","Water Valley Dr.","Tallahassee","FL","32303","","","","",""
"True","7858","Maclean Rd","Tallahassee","FL","32312","","","","",""
"True","10063","Old Centerville Rd.","Tallahassee","FL","32309","","","","",""
"True","126","ParkBrook Cir","Tallahassee","FL","32301","","","","",""
"False","3551","Plowshare Rd.","Tallahassee","FL","32309","","","","",""
"False","6305","Carter Trl","Tallahassee","FL","32303","","","","",""
"True","2781","Ole Ben Cir.","Tallahassee","FL","32305","","","","",""
"True","5861","Old Bainbridge Rd","Tallahassee","FL","32303","","","","",""
"True","713","Forest Lair","Tallahassee","FL","32312","","","","",""
"True","6081","Pisgah Church Road","Tallahassee","FL","32308","","","","",""
"True","444","Capital Cir. SW","Tallahassee","FL","32304","","","","",""
"True","4541","Autumn Woods Way","Tallahassee","FL","32303","","","","","MAINTENANCE"
"False","2938","Livingston Rd.","Tallahassee","FL","32303","","","","",""
"False","254","Kirby Cir","Havana","FL","32333","","","","",""
"False","3725","Homestead Rd.","Tallahassee","FL","32309","","","","",""
"False","3460","Welwyn Way","Tallahassee","FL","32309","","","","",""
"False","1808","Folkstone Dr","Tallahassee","FL","32312","","","","",""
"True","3506","N Monroe  St.","Tallahassee","FL","32303","","","","",""
"True","615","Oakwood Trail","Crawfordville","FL","32327","","","","",""
"True","3165","Lakeshore Dr.","Tallahassee","FL","32312","","","","",""
"True","5700","Verlaine Ct.","Tallahassee","FL","32308","","","","",""
"True","124","Riversink Rd.","Crawfordville","FL","32327","","","","",""
"False","1110","Richardson Rd.","Tallahassee","FL","32301","","","","",""
"False","2316","Bourgogne Dr","Tallahassee","FL","32308","","","","",""
"True","1909","Harriet Dr.","Tallahassee","FL","32303","","","","",""
"True","32000","Blue Star Highway","Midway","FL","32343","","","","",""
"True","7646","Pasture Dr","Tallahassee","FL","32311","","","","",""
"True","5351","Tallapoosa Rd.","Tallahassee","FL","32303","","","","",""
"True","2710","Newchatel Dr.","Tallahassee","FL","32303","","","","",""
"True","4240","Carnwath Rd","Tallahassee","FL","32303","","","","",""
"True","4569","Buttercup Way","Tallahassee","FL","32311","","","","",""
"False","1422","Groveland Hills Dr","Tallahassee","FL","32317","","","","",""
"True","3554","Lakeshore Dr.","Tallahassee","FL","32312","","","","",""
"True","487","Beaver Lake Rd","Tallahassee","FL","32312","","","","",""
"True","3309","Reading Ln.","Tallahassee","FL","32312","","","","",""
"True","2225","Government Farms Rd.","Monticello","FL","32344","","","","",""
"True","5650","Santa Anita Dr","Tallahassee","FL","32309","","","","",""
"True","7640","Deepwood Trl.","Tallahassee","FL","32317","","","","",""
"True","3805","Bobbin Mill Rd","Tallahassee","FL","32312","","","","",""
"True","3575","Oak Hill Trl","Tallahassee","FL","32312","","","","",""
"True","10539","Winters Run","Tallahassee","FL","32312","","","","",""
"True","6215","Bombadil Dr.","Tallahassee","FL","","","","","",""
"True","3110","Okeeheepkee Rd.","Tallahassee","FL","32303","","","","",""
"True","6778","Tom Roberts Rd.","Tallahassee","FL","32305","","","","",""
"False","35","Terrapin Trl","Crawfordville","FL","32327","","","","",""
"True","9283","PowderHorn Avenue","Tallahassee","FL","32309","","","","",""
"False","","Mandy Luttenton","Tallahassee","FL","32317","","","","",""
"True","1036","Corby Court","Tallahassee","FL","32317","","","","",""
"True","1372","White Star Ln.","Tallahassee","FL","32312","","","","",""
"True","1320","Lake Sunset Way","Tallahassee","FL","32310","","","","",""
"True","1338","Lawndale Rd.","Tallahassee","FL","32317","","","","",""
"True","6753","Alan A Dale Trl.","Tallahassee","FL","32309","","","","",""
"True","3119","Fieldstone Ln","Tallahassee","FL","32308","","","","",""
"True","13058","Driftwood Cir","Tallahassee","FL","32317","","","","",""
"True","2066","Thomasville Rd","Tallahassee","FL","32308","","","","",""
"True","9117","Hickorynut Hill","Tallahassee","FL","32312","","","","",""
"True","379","Saint Angelo Rd.","Tallahassee","FL","32312","","","","",""
"False","4226","Amber Valley Dr.","Tallahassee","FL","32312","","","","",""
"True","3915","Tan Mouse Rd.","Tallahassee","FL","32309","","","","",""
"True","5331","Ben Brush Trl.","Tallahassee","FL","32309","","","","",""
"False","5074","Velda Dairy Rd.","Tallahassee","FL","32309","","","","",""
"True","11215","Turkey Roost Rd.","Tallahassee","FL","32317","","","","",""
"True","4432","Kensington Rd.","Tallahassee","FL","32303","","","","",""
"True","300","Deer Ridge Cir.","Havana","FL","32333","","","","",""
"False","6453","Fitz Ln","Tallahassee","FL","32311","","","","",""
"True","3990","McWest Ct.","Tallahassee","FL","32303","","","","",""
"True","2525","Tallavana Trail","Tallahassee","FL","32333","","","","",""
"False","1467","Paul Thompson Rd.","Monticello","FL","32344","","","","",""
"True","1108","Lovers Ln North","Tallahassee","FL","32317","","","","",""
"False","2066","Thomasville Rd.","Tallahassee","FL","32308","","","","",""
"False","3208","Majestic Prince Trl","Tallahassee","FL","32309","","","","",""
"True","2921","Quail Rise Ct.","Tallahassee","FL","32309","","","","",""
"True","4428","Argyle Ln","Tallahassee","FL","32309","","","","",""
"True","1844","Rodeo Drive","Tallahassee","FL","32311","","","","",""
"True","2740","Sandalwood Dr., N.","Tallahassee","FL","32305","","","","",""
"True","1205","Chockasacka Nene","Tallahassee","FL","32301","","","","",""
"True","2167","Tallavanna Trail","Havana","FL","","","","","",""
"True","2340","Moondance Trail","Tallahassee","FL","32311","","","","",""
"True","5036","Valley Farm Rd","Tallahassee","FL","32303","","","","",""
"True","1310","Tom Still Rd.","Tallahassee","FL","32305","","","","",""
"True","223","McMahon Dr.","Crawfordville","FL","32327","","","","",""
"True","3596","Uncle Glover","Tallahassee","FL","32312","","","","",""
"False","2214","Heathrow Dr.","Tallahassee","FL","32312","","","","",""
"False","46","Shepard's Easement","Crawfordville","FL","32327","","","","",""
"True","7738","McClure Drive","Tallahassee","FL","32312","","","","",""
"False","1512","Yearling Trl.","Tallahassee","FL","32317","","","","",""
"True","5115","Ile De France Dr.","Tallahassee","FL","32308","","","","",""
"True","4353","Amber Valley Drive","Tallahassee","FL","32312","","","","",""
"True","7027","Duck Cove Road","Tallahassee","FL","32312","","","","",""
"True","101","Twilight Ln.","Crawfordville","FL","32327","","","","",""
"True","2433","Manzanita Ct.","Tallahassee","FL","32303","","","","",""
"True","4504","Argyle Ln.","Tallahassee","FL","32309","","","","",""
"True","1195","Dogwood Dr","Havana","FL","32333","","","","",""
"True","1130","Corby Ct. E.","Tallahassee","FL","32317","","","","",""
"True","1115","Archangel Way","Tallahassee","FL","32312","","","","",""
"False","3651","Cherry Bluff Ln.","Tallahassee","FL","32312","","","","",""
"True","4702","Highgove Rd.","Tallahassee","FL","32309","","","","",""
"True","7772","Briarcreek Rd. N","Tallahassee","FL","32312","","","","",""
"True","4554","Sunray Place","Tallahassee","FL","32309","","","","",""
"True","1648","-C Metropolitan Circle","Tallahassee","FL","32308","","","","",""
"False","4295","Sand Pine Ln","Tallahassee","FL","32305","","","","",""
"True","8046","Freshwater Farms Rd.","Tallahassee","FL","32309","","","","",""
"True","10679","Lake Iamonia Dr.","Tallahassee","FL","32312","","","","",""
"False","4482","Jubilee Trl","Tallahassee","FL","32305","","","","",""
"True","8119","Freshwater Farms Rd.","Tallahassee","FL","32309","","","","",""
"False","1520","Killearn Center Blvd.","Tallahassee","FL","32309","","","","",""
"True","8048","Greenmont Ave.","Tallahassee","FL","32317","","","","",""
"False","1178","Virgil Rd.","Tallahassee","FL","32311","","","","",""
"False","8339","Hinsdale Way","Tallahassee","FL","32312","","","","",""
"True","4936","Highgrove Road","Tallahassee","FL","32308","","","","",""
"True","333","Hill Top Dr.","Midway","FL","32343","","","","",""
"True","1100","Mor Bihan","Tallahassee","FL","32301","","","","",""
"False","2229","Tuscavilla Rd","Tallahassee","FL","32312","","","","",""
"True","3465","Lakeshore Dr.","Tallahassee","FL","32312","","","","",""
"False","7698","McClure Dr.","Tallahassee","FL","32312","","","","",""
"False","3818","Ulmer Ct","Tallahassee","FL","32311","","","","",""
"True","3223","Lakeshore Dr","Tallahassee","FL","32312","","","","",""
"True","6135","Williams Rd","Tallahassee","FL","32311","","","","",""
"True","6210","Pickwick Rd","Tallahassee","FL","32309","","","","",""
"True","80","Sue Ln.","Crawfordville","FL","32327","","","","",""
"True","211","Talquin Shores Dr.","Quincy","FL","32351","","","","",""
"True","2181","Shangri La Ln.","Tallahassee","FL","32303","","","","",""
"True","4919","Buck Lake Rd.","Tallahassee","FL","32317","","","","",""
"True","2212","Napoleon Bonaparte Dr.","Tallahassee","FL","32308","","","","",""
"True","3690","Dexter Dr.","Tallahassee","FL","32312","","","","",""
"True","533","Bob Miller Road","Crawfordville","FL","32327","","","","",""
"True","2545","Garrison Court","Cumming","FL","30041","","","","",""
"True","2003","Casa Linda Ct.","Tallahassee","FL","32303","","","","",""
"True","3750","Sally Ln.","Tallahassee","FL","32312","","","","",""
"False","3970","Sunrise Rd.","Tallahassee","FL","32309","","","","",""
"True","4119","Louvinia Dr.","Tallahassee","FL","32311","","","","",""
"True","643","Markim Rd.","Tallahassee","FL","32305","","","","",""
"False","1957","Collins Landing Rd","Tallahassee","FL","32310","","","","",""
"True","97","Sellars Dr","Crawfordville","FL","32327","","","","",""
"False","","Ivan Church Rd","Crawfordville","FL","32327","","","","",""
"False","295","Rose Hill Dr E","Tallahassee","FL","32312","","","","",""
"False","2349","Barcelona Ct","Tallahassee","FL","32311","","","","",""
"True","5","Sellars Dr.","Crawfordville","FL","32327","","","","",""
"True","74","Weeping Willow Ct","Crawfordville","FL","32327","","","","",""
"True","41","Revadee Spears Rd.","Crawfordville","FL","32327","","","","",""
"True","300","Beaver Lake Rd","Tallahassee","FL","32312","","","","",""
"True","2356","Arendell Way","Tallahassee","FL","32308","","","","",""
"True","1932","Charlais St","Tallahassee","FL","32317","","","","",""
"True","11353","Buck Lake Rd.","Tallahassee","FL","32317","","","","",""
"False","8415","Buck Lake Rd.","Tallahassee","FL","32317","","","","",""
"True","7901","Lonesome Dove Lane","Tallahassee","FL","32311","","","","",""
"True","1076","Corby Court","Tallahassee","FL","32311","","","","",""
"False","1725","Broken Bow Trl.","Tallahassee","FL","32312","","","","",""
"True","6073","Wessex CT","Tallahassee","FL","32309","","","","",""
"False","1679","Vineyard Way","Tallahassee","FL","32317","","","","",""
"True","8004","Seculsion Ln.","Tallahassee","FL","32317","","","","",""
"True","1268","High Rd.","Tallahassee","FL","32304","","","","",""
"True","6078","Thackeray Dr.","Tallahassee","FL","32309","","","","",""
"True","562","Litchfield Rd","TLH","FL","32312","","","","",""
"True","2221","Mandrell Ct","Tallahassee","FL","32303","","","","",""
"True","1912","Chatsworth Way","Tallahassee","FL","32309","","","","",""
"True","2018","Amboise Ct.","Tallahassee","FL","32308","","","","",""
"True","4248","Stargazer Trl.","Tallahassee","FL","32309","","","","",""
"True","1405","Westheaven Dr,","Tallahassee","FL","32310","","","","",""
"True","28","Three Sisters Rd.","Crawfordville","FL","32327","","","","",""
"True","7677","Christy Cary Ln.","Tallahassee","FL","32304","","","","",""
"True","3713","Danesborough Dr.","Tallahassee","FL","32303","","","","",""
"True","11","Pinewood St","Crawfordville","FL","32327","","","","",""
"True","5278","Pimlico","Tallahassee","FL","32309","","","","",""
"True","1949","Shady Oaks Dr.","Tallahassee","FL","32303","","","","",""
"False","2048","Chimney Swift Hollow","Tallahassee","FL","32312","","","","",""
"False","699","US Highway 98","Eastpoint","FL","32328","","","","",""
"True","9183","Old Chemonie Dr","Tallahassee","FL","32309","","","","",""
"False","","Millermark Construction LLC","Tallahassee","FL","32317","","","","",""
"False","8026","Blue Smoke","Tallahassee","FL","32312","","","","",""
"True","2418","-1 Millcreek Ct.","Tallahassee","FL","32309","","","","",""
"False","12570","Wiley Rd","Tallahassee","FL","32309","","","","",""
"True","2312","Bourgogne Dr.","Tallahassee","FL","32308","","","","",""
"True","6501","Alan-A-Dale Trl.","Tallahassee","FL","32317","","","","",""
"True","664","Woodville Hwy","Crawfordville","FL","32327","","","","",""
"False","81","Beachwood Dr","Crawfordville","FL","32327","","","","",""
"True","4175","McLeod Dr.","Tallahassee","FL","32303","","","","",""
"True","2105","Lambert Ln","Tallahassee","FL","32317","","","","",""
"True","1159","Corby Ct. E","Tallahassee","FL","32317","","","","",""
"False","1273","Rich Bay Rd","Havana","FL","32333","","","","",""
"False","23","Libby Ln","Crawfordville","FL","32327","","","","",""
"True","6326","Couch House Ct.","Tallahassee","FL","32312","","","","",""
"True","8688","Shire Ridge Loop","Tallahassee","FL","32309","","","","",""
"True","123","East Gulf Beach Dr.","St. George Island","FL","","","","","",""
"True","2132","Little River Lane","Tallahassee","FL","32311","","","","",""
"True","1235","Apalachee Pkwy","Tallahassee","FL","32301","","","","",""
"True","3642","Moody Trl.","Tallahassee","FL","32309","","","","",""
"True","1335","Frank Smith Rd.","Quincy","FL","32352","","","","",""
"True","8707","Salamanca","Tallahassee","FL","32311","","","","",""
"True","14200","Otter Run Rd.","Tallahassee","FL","32312","","","","",""
"False","32","JK Moore Rd","Crawfordville","FL","32327","","","","",""
"True","1243","Sedgefield Rd.","Tallahassee","FL","32317","","","","",""
"True","3120","Brandywine Dr.","Tallahassee","FL","32308","","","","",""
"True","3048","Whirl A Way Trail","Tallahassee","FL","32309","","","","",""
"True","6995","Big Woods Dr","Tallahassee","FL","32309","","","","",""
"True","1202","Comanche Trl.","Tallahassee","FL","32304","","","","",""
"True","78","Pinewood St","Crawfordville","FL","32327","","","","",""
"True","1009","Waverly Rd.","Tallahassee","FL","32312","","","","",""
"True","2360","Cypress Cove Drive","Tallahassee","FL","32310","","","","",""
"True","3608","Harwell Pl","Tallahassee","FL","32303","","","","",""
"True","3989","Calle De Santos Rd.","Tallahassee","FL","32311","","","","",""
"True","2026","Morning Dove","Tallahassee","FL","32312","","","","",""
"True","7935","Thomasville Rd.","Tallahassee","FL","32312","","","","",""
"True","6713","Hill Gail Trl","Tallahassee","FL","32309","","","","",""
"True","1102","Lasswade Dr.","Tallahassee","FL","32312","","","","",""
"False","1913","Dellwood Dr","Crawfordville","FL","32303","","","","",""
"False","1191","Alligator Point Dr.","Freeport","FL","32439","","","","",""
"True","2668","Chateau Ln.","Tallahassee","FL","32311","","","","",""
"True","9486","Wakulla Springs Rd.","Tallahassee","FL","32305","","","","",""
"True","9794","Rosa Mistica Ct.","Tallahassee","FL","32317","","","","",""
"True","7236","Newfield DR","Talllahassee","FL","32303","","","","",""
"False","3063","Royal Palm Way","Tallahassee","FL","32309","","","","",""
"False","3515","Tallapoosa Ln","Tallahassee","FL","32303","","","","",""
"True","6784","Winding Creek Ct","Tallahassee","FL","32311","","","","",""
"True","4085","N. Monroe St.","Tallahassee","FL","32303","","","","",""
"False","1309","Lansdowne Rd","Tallahassee","FL","32317","","","","",""
"True","162","Woodland Herritage Blvd.","Crawfordville","FL","32327","","","","",""
"True","1916","E. Windwood Way","Tallahassee","FL","32311","","","","",""
"True","11124","Bexhill Lane","Tallahassee","FL","32317","","","","",""
"True","4557","High Grove Rd.","Tallahassee","FL","32309","","","","",""
"True","238","Baywood Dr.","Carrabelle","FL","32322","","","","",""
"True","71","Spruce Lane, South","Havana","FL","32333","","","","",""
"True","3100","Black Gold Trl.","Tallahassee","FL","","","","","",""
"False","1663","Vineyard Way","Tallahassee","FL","32317","","","","",""
"False","2901","Edenderry Dr.","Tallahassee.","FL","32309","","","","",""
"False","3712","Longfellow Rd","Tallahassee","FL","32311","","","","",""
"True","87","Walker Creek Dr.","Tallahassee","FL","32327","","","","",""
"True","","Efficientis, LLC","Tallahassee","FL","32302","","","","",""
"True","1787","Orange Wood St.","Pasadena","FL","91106","","","","",""
"True","1527","Blockford Ct. E.","Tallahassee","FL","32317","","","","",""
"False","2008","Atascadero Ct","Tallahassee","FL","32317","","","","",""
"True","1436","Tiger Lily Ct.","Tallahassee","FL","32303","","","","",""
"False","9601","Miccosukee Rd., MLC 18","Tallahassee","FL","32308","","","","",""
"False","4909","Leah Lane","Tallahassee","FL","32303","","","","",""
"True","2513","Hastings Dr.","Tallahassee","FL","32303","","","","",""
"False","158","Audubon Drive","Havana","FL","32333","","","","",""
"True","804","Mays Rd","Tallahassee","FL","32312","","","","",""
"True","4144","McLeod Dr.","Tallahassee","FL","32303","","","","",""
"True","6527","Montrose Trl","Tallahassee","FL","32309","","","","",""
"True","5393","Sombra Del Lago","Tallahassee","FL","32303","","","","",""
"True","3202","Lakeshore Dr. W","Tallahassee","FL","32312","","","","",""
"True","64","Satinwood","Crawfordville","FL","32327","","","","",""
"True","6427","Count Turf Trl.","Tallahassee","FL","32309","","","","",""
"True","10172","Clydesdale Dr.","Tallahassee","FL","32311","","","","",""
"True","1650","Folkstone Rd","Tallahassee","FL","32312","","","","",""
"True","6376","Duck Call Ct.","Tallahassee","FL","32309","","","","",""
"True","2207","Orleans Dr.","Tallahassee","FL","32308","","","","",""
"False","216","Francis Maples Dr","Tallahassee","FL","32310","","","","",""
"True","1512","Meeks Rd","Tallahassee","FL","32317","","","","",""
"False","341","Beaver Lake Rd.","Tallahassee","FL","32312","","","","",""
"True","8747","Minnow Creek Dr.","Tallahassee","FL","32312","","","","",""
"True","4871","Highgrove Road","Tallahassee.","FL","32309","","","","",""
"True","2944","Whirlaway Trail","Tallahassee","FL","32309","","","","",""
"True","2643","Lucerne Dr.","Tallahassee","FL","32303","","","","",""
"True","4915","Buck Lake Rd","Tallahassee","FL","32317","","","","",""
"True","7609","Tally Ann Dr.","Tallahassee","FL","32311","","","","",""
"False","1831","Lakeshore Lane","Tallahassee","FL","32312","","","","",""
"False","2848","Spaulding Rd.","Tallahassee","FL","32303","","","","",""
"True","760","Lonnie Raker Rd.","Crawfordville","FL","32327","","","","",""
"False","1514","Canadian Geese Trl","Tallahassee","FL","32317","","","","",""
"True","2500","Merchants Row Blvd, Apt.187","Tallahassee","FL","32311","","","","",""
"True","1549","Balkin Rd.","Tallahassee","FL","32305","","","","",""
"True","3124","Lookout Trl.","Tallahassee","FL","32309","","","","",""
"True","3242","Citation Trail","Tallahassee","FL","32309","","","","",""
"True","1060","Live Oak Plantation Rd.","Tallahassee","FL","32312","","","","",""
"True","835","Maderia Circle","Tallahassee","FL","32312","","","","",""
"True","6159","Leigh Read Rd.","Tallahassee","FL","32309","","","","",""
"True","7929","Reynolds Drive","Tallahassee","FL","32312","","","","",""
"False","44","Iroquois Rd.","Crawfordville","FL","32327","","","","",""
"True","3703","Corinth Dr.","Tallahassee","FL","32308","","","","",""
"True","3224","Proud Clarion","Tallahassee","FL","32312","","","","",""
"False","10769","Old Plank Rd.","Tallahassee","FL","32305","","","","",""
"True","8251","Chickasaw Trl.","Tallahassee","FL","32312","","","","",""
"False","","Larry Olszewski and","Woodville","FL","32326","","","","",""
"False","323","Buttonwood Ln.","Tallahassee","FL","32317","","","","",""
"True","2455","Chateau Ln.","Tallahassee","FL","32311","","","","",""
"False","160","lineage Ct","Monticello","FL","32344","","","","",""
"True","8854","Celia","Tallahassee","FL","32305","","","","",""
"True","3712","Sally Ln.","Tallahassee","FL","32312","","","","",""
"True","3961","Loblolly Ln","Tallahassee","FL","32317","","","","",""
"True","4987","Glen Castle Drive","Tallahassee","FL","32308","","","","",""
"True","413","Timberlane Road","Tallahassee","FL","32312","","","","",""
"True","3820","Bobbin Mill Road","Tallahassee","FL","32312","","","","",""
"True","3817","Castleberry Dr.","Tallahassee","FL","32303","","","","",""
"True","2274","Stonewood Ln.","Tallahassee","FL","32305","","","","",""
"True","","PO Box 16586","Tallahassee","FL","32317","","","","",""
"False","3476","Cedarwoods Trl","Tallahassee","FL","32312","","","","",""
"True","1831","Lake Shore Ln.","Tallahassee","FL","32312","","","","",""
"False","2364","Carefree Cove","Tallahassee","FL","32308","","","","",""
"True","9557","Star Hawk","Tallahassee","FL","32308","","","","",""
"False","","P. O. Box 12668","Tallahassee","FL","32317","","","","",""
"True","501","Ellis Rd.","Tallahassee","FL","32317","","","","",""
"True","1542","Twin Lakes","Tallahassee","FL","32311","","","","",""
"False","1716","Crowder Road","Tallahassee","FL","32303","","","","",""
"True","4345","Crump Rd.","Tallahassee","FL","32309","","","","",""
"True","7229","Newfield Dr.","Tallahassee","FL","32303","","","","",""
"True","1530","Metropolitan Blv","Tallahassee","FL","32308","","","","",""
"False","","Leon County Parks and Recreation","Tallahassee","FL","32308","","","","",""
"True","3084","Connector Dr","Tallahassee","FL","32303","","","","",""
"False","255","Quail Run","Crawfordville","FL","32327","","","","",""
"True","1947","Faulk Drive","Tallahassee","FL","32303","","","","",""
"True","2624","Lucerne Dr.","Tallahassee","FL","32303","","","","",""
"False","1717","Capital Cir NE","Tallahassee","FL","32308","","","","","MAINTENANCE"
"True","9512","Apalachee Pkwy","Tallahassee","FL","32311","","","","","CONTRACT EXPIRES 8/25/2022,PERMIT EXPIRES 8/25/21,INSTALLED 12/7/2005,ATU MAINTENANCE"
"True","1350","W. Tennessee St.","Tallahassee","FL","32304","","","","",""
"False","4345","Bloxham Cutoff","Crawfordville","FL","32327","","","","",""
"True","2340","Bourgogne Dr.","Tallahassee","FL","32308","","","","",""
"True","3517","Willow Spring Lane","Tallahassee","FL","32312","","","","",""
"False","4852","Buck Lake Rd.","Tallahassee","FL","32317","","","","",""
"False","71","San Bonita Way","Havana","FL","32333","","","","",""
"False","180","Ponderosa Ln.","Midway","FL","32343","","","","",""
"True","1249","CR 12","Tallahassee","FL","32312","","","","",""
"True","12995","Forest Run Rd.","Tallahassee","FL","32317","","","","",""
"True","2495","Augustine Ct.","Tallahassee","FL","32311","","","","",""
"False","19306","North By Northwest Rd.","Tallahassee","FL","32310","","","","",""
"True","4286","Maylor Lane","Tallahassee","FL","32308","","","","",""
"True","727","Benjamin Chaires Rd.","Tallahassee","FL","32317","","","","",""
"False","2407","Manzanita Ct","Tallahassee","FL","32303","","","","",""
"True","594","Old Tung Grove Rd.","Tallahassee","FL","32344","","","","",""
"True","6420","Kingman Trl","Tallahassee","FL","32309","","","","",""
"True","2481","Arvah Branch Blvd","Tallahassee","FL","32309","","","","",""
"True","273","Havana Hwy","Quincy","FL","32352","","","","",""
"True","3125","Elwood Trl.","Tallahassee","FL","32309","","","","",""
"True","2211","Natural Wells Dr.","Tallahassee","FL","32305","","","","",""
"True","3821","Lost Lane","Tallahassee","FL","32309","","","","",""
"True","1337","Lawndale Rd.","Tallahassee","FL","32317","","","","",""
"True","1264","Quail Lane","Monticello","FL","32344","","","","",""
"False","327","Canal St.","Crawfordville","FL","32327","","","","",""
"False","1586","Steele St.","Denvr","FL","80206","","","","",""
"True","2929","Quail Rise Ct.","Tallahassee","FL","32309","","","","",""
"False","3427","N Carnation Ct","Tallahassee","FL","32303","","","","",""
"True","56","Hickorywood Dr","Crawforfville","FL","32327","","","","",""
"True","428","East College Ave.","Tallahassee","FL","32301","","","","",""
"True","1861","Rodeo Dr.","Tallahassee","FL","32311","","","","",""
"False","4251","Rockingham Rd.","Tallahassee","FL","32303","","","","",""
"True","10524","Lake Iamonia Dr","Tallahassee","FL","32312","","","","",""
"False","1991","Orchard Pond","Tallahassee","FL","32312","","","","",""
"True","7788","Briarcreek Rd. N.","Tallahassee","FL","32312","","","","",""
"True","2658","Topaz Way","Tallahassee","FL","32308","","","","",""
"False","8169","Wenoga Ct.","Tallahassee","FL","32311","","","","",""
"True","403","Castleton Cir.","Tallahassee","FL","32312","","","","",""
"True","8656","Alexandrite Ct","Tallahassee","FL","32309","","","","",""
"True","2084","Cynthia Dr.","Tallahassee","FL","32303","","","","",""
"True","6981","Duck Cove Rd","Tallahassee","FL","32312","","","","",""
"True","6733","Lanover Cir.","Tallahassee","FL","32317","","","","",""
"True","1109","Jeffery Rd","Tallahassee","FL","32312","","","","",""
"True","56","Leslie Lane","Crawfordville","FL","32327","","","","",""
"False","3213","Gallant Fox Trl.","Tallahassee","FL","32309","","","","",""
"True","2680","Baum Road","Tallahassee","FL","32311","","","","",""
"True","10025","N. Natural Wells Dr.","Tallahassee","FL","32305","","","","",""
"True","2017","Beaver Creek Dr.","Havana","FL","32333","","","","",""
"True","7527","Old St. Augustine Rd","Tallahassee","FL","32311","","","","",""
"True","108","Powerline Rd","Crawfordville","FL","32327","","","","",""
"False","13850","Capitola Rd","Tallahassee","FL","32317","","","","",""
"False","2674","Crowder Loop","Tallahassee","FL","32303","","","","",""
"False","2233","Mandrell Ct","Tallahassee","FL","32303","","","","",""
"True","5545","W.W. Kelly Rd.","Tallahassee","FL","32311","","","","",""
"True","3046","Cloudland Drive","Tallahassee","FL","32312","","","","",""
"False","2336","Cypress Cove Dr.","Tallahassee","FL","32310","","","","",""
"True","195","Villa Lane","Havana","FL","32333","","","","",""
"True","8957","Winged Foot Dr.","Tallahassee","FL","32312","","","","",""
"True","2369","Tour Eiffel Dr.","Tallahassee","FL","32308","","","","",""
"True","9757","Mahan Dr.","Tallahassee","FL","32309","","","","",""
"True","4512","Amber Vally Rd","Tallahassee","FL","32312","","","","",""
"True","1977","Charlais St.","Tallahassee","FL","32317","","","","",""
"True","","Department of Construction","Tallahassee","FL","32307","","","","",""
"True","5838","Asheville Hwy","Monticello","FL","32344","","","","",""
"False","1911","-B N. Monroe St.","Tallahassee","FL","32303","","","","",""
"False","","Holistic Properties","Tallahassee","FL","32317","","","","",""
"True","2054","Hill-N-Dale Dr N.","Tallahassee","FL","32317","","","","",""
"True","6350","Verdura Way","Tallahassee","FL","32311","","","","",""
"True","4432","Bright Dr.","Tallahassee","FL","32303","","","","",""
"True","2632","Neuchatel Dr.","Tallahassee","FL","32303","","","","",""
"False","2601","Lucerne Dr.","Tallahassee","FL","32303","","","","",""
"True","6083","Gascony Lane","Tallahassee","FL","32308","","","","",""
"True","3551","Garden View Way","Tallahassee","FL","32309","","","","",""
"True","2341","Edenfield Rd","Tallahassee","FL","32308","","","","",""
"True","3946","Elysian Court","Tallahassee","FL","32311","","","","",""
"True","2433","Bass Bay Dr.","Tallahassee","FL","32312","","","","",""
"True","6636","Reigh Count Trl.","Tallahassee","FL","32309","","","","",""
"True","2050","Little River Ln.","Tallahassee","FL","32311","","","","",""
"True","2010","Longspur Ln.","Tallahassee","FL","32309","","","","",""
"False","3338","Mariana Oaks Dr","Tallahassee","FL","32311","","","","",""
"True","4131","McLeod Dr.","Tallahassee","FL","32303","","","","",""
"True","2005","Lambert Lane","Tallahassee","FL","32311","","","","",""
"True","2979","Oak Tree Ln.","Tallahassee","FL","32310","","","","",""
"True","2035","LongView Dr","Tallahassee","FL","32303","","","","",""
"True","171","Southfork Ln","Crawfordville","FL","32327","","","","",""
"True","3187","Tallavana Trl.","Havana","FL","32333","","","","",""
"True","5340","Grove Valley Rd.","Tallahassee","FL","32303","","","","",""
"True","2233","Lake Heritage Dr","Tallahassee","FL","32311","","","","",""
"True","4198","St. Teresa ave.","St. Teresa","FL","","","","","",""
"True","3467","Frontier Rd","Tallahassee","FL","32309","","","","",""
"True","85","Mitchell St","Havana","FL","32333","","","","",""
"False","","sheats rd","Tallahassee","FL","32344","","","","",""
"False","3801","Chaires Cross Rd.","Tallahassee","FL","32317","","","","",""
"False","","Arcadia Ave","Tallahassee","FL","32309","","","","",""
"True","5215","EW Reeves Rd.","Tallahassee","FL","32305","","","","",""
"False","295","Ada Court","Tallahassee","FL","32305","","","","",""
"False","901","Geddie Rd","Tallahassee","FL","32304","","","","",""
"True","11038","Pennewa Trace","Tallahassee","FL","32317","","","","",""
"False","","williams rd","Tallahassee","FL","32317","","","","",""
"True","1802","Vinyard Way","Tallahassee","FL","32317","","","","",""
"True","3519","Sharer Rd.","Tallahassee","FL","32312","","","","",""
"True","3444","Frontier Rd.","Tallahassee","FL","32309","","","","",""
"True","1407","Alshire Ct. S","Tallahassee","FL","32317","","","","",""
"True","6539","Man O War TRL","Tallahassee","FL","32309","","","","",""
"True","978","Merritt Rd.","Havana","FL","32333","","","","",""
"False","6535","Kingman Trl.","Tallahassee","FL","32309","","","","",""
"True","6035","Boyton Homstead","Tallahassee","FL","32312","","","","",""
"True","2717","Masterson Ln.","Tallahassee","FL","32311","","","","",""
"True","1118","Lompoc Ct.","Tallahassee","FL","32317","","","","",""
"True","3675","Corinth Rd.","Tallahassee","FL","32308","","","","",""
"True","9401","Stonewood Ln","Tallahassee","FL","32301","","","","",""
"True","7014","Upland Glade St.","Tallahassee","FL","32312","","","","",""
"True","1765","Rodeo Dr.","Tallahassee","FL","32311","","","","",""
"True","3862","Imaginary Rd","Tallahassee","FL","32309","","","","",""
"True","8668","Alexandrite Ct.","Tallahassee","FL","32309","","","","",""
"True","2085","Ox Bottom Rd.","Tallahassee","FL","32312","","","","",""
"True","6776","Longhorn Dr.","Tallahassee","FL","32311","","","","",""
"True","5306","Isabelle Dr.","Tallahassee","FL","32305","","","","",""
"True","3607","Monmouth Ct.","Tallahassee","FL","32308","","","","",""
"False","4331","W Washington Hwy","Monticello","FL","32344","","","","",""
"True","4190","Louvinia Dr.","Tallahassee","FL","32311","","","","",""
"True","59","S. Quail Hollow Rd.","Havana","FL","32333","","","","",""
"True","2368","Tour Eiffel Dr.","Tallahassee","FL","32308","","","","",""
"False","1931","Hollywood Dr.","Tallahassee","FL","32303","","","","",""
"True","14241","Buckhorn Rd","Tallahassee","FL","32312","","","","",""
"True","2368","Tour Eiffel Dr","Tallahassee","FL","32308","","","","",""
"False","16824","Mahan  Dr","Tallahassee","FL","32309","","","","",""
"True","9084","Warbler Street","Tallahassee","FL","32305","","","","",""
"False","1093","River View Way","sevierville","FL","37876","","","","",""
"True","1504","Westheaven Dr","Tallahassee","FL","32310","","","","",""
"True","63","Mill Creek Road","Crawfordville","FL","32327","","","","",""
"True","1224","N. Adams St.","Tallahassee","FL","32303","","","","",""
"True","8120","Blue Quill Dr.","Tallahassee","FL","32312","","","","",""
"True","11701","Evergreen Hills Ct.","Tallahassee","FL","32305","","","","",""
"True","5421","Pedrick Crossing Dr.","Tallahassee","FL","32317","","","","",""
"True","1725","Capital Cir NW","Tallahassee","FL","32303","","","","",""
"True","65","Mossy Oaks 3rd St.","Quincy","FL","32351","","","","",""
"True","2078","Little River Ln","Tallahassee","FL","32311","","","","",""
"True","","Sweetfield Ln","Monticello","FL","32344","","","","",""
"True","3874","Imaginary Rd.","Tallahassee","FL","32309","","","","",""
"True","9689","N Horseshoe Rd","Tallahassee","FL","32317","","","","",""
"True","3880","Beechnut Gum Rd.","Tallahassee","FL","32309","","","","",""
"True","3648","Uncle Glover Rd.","Tallahassee","FL","32312","","","","",""
"True","3222","Yorktown Dr.","Tallahassee","FL","32312","","","","","MAINTENANCE"
"True","217","Meridian Hills Rd.","Tallahassee","FL","32312","","","","",""
"True","255","Telogia Creek Rd.","Quincy","FL","32351","","","","",""
"True","4332","Amber Valley Dr.","Tallahassee","FL","32312","","","","",""
"True","3038","Bell Grove Dr.","Tallahassee","FL","32308","","","","",""
"True","2815","Sweetbriar Dr.","Tallahassee","FL","32312","","","","",""
"True","5028","Nelly Ln.","Tallahassee","FL","32303","","","","",""
"True","3712","Bently Dr.","Tallahassee","FL","32303","","","","",""
"True","7778","McClure Dr.","Tallahassee","FL","32312","","","","",""
"True","62","R & R Lane","Crawfordville","FL","32327","","","","",""
"True","9717","Snail St.","Tallahassee","FL","32305","","","","",""
"True","321","Oaks Will Ct","Tallahassee","FL","32312","","","","","ATU MAINTENANCE"
"False","1500","China Grove Trail","Tallahassee","FL","32301-4972","","","","",""
"False","1320","Landover Ct","Tallahassee","FL","32317","","","","",""
"True","8044","Greenmont Ave.","Tallahassee","FL","32317","","","","",""
"True","3313","Reading Ln","Tallahassee","FL","32312","","","","",""
"True","2412","Napoleon Bonaparte Dr.","Tallahassee","FL","32309","","","","",""
"False","1320","Burgess Dr","Tallahassee","FL","32304","","","","",""
"True","3376","Barrow Hill Trl","Tallahassee","FL","32312","","","","",""
"False","","Deborah Saley, Broker Associate","Mar-LU Properties, Inc.","FL","","","","","",""
"False","2001","Woodstock Ln","Tallahassee","FL","32303","","","","",""
"True","","Mariana Oaks","","FL","","","","","",""
"True","1605","Groveland Hills Dr.","Tallahassee","FL","32317","","","","",""
"False","2338","Old St. Augustine Rd","Tallahassee","FL","32301","","","","",""
"True","9345","Yashuntafun Road","Tallahassee","FL","32311","","","","",""
"True","6008","Veteran's Memorial Dr","Tallahassee","FL","32308","","","","",""
"True","42","Ridgeland Ct.","Crawfordville","FL","32327","","","","",""
"True","8565","Marquis St.","Tallahassee","FL","32309","","","","",""
"True","9054","Foxwood Dr.","Tallahassee","FL","32309","","","","",""
"True","6411","Dancers Image Trl","Tallahassee","FL","32309","","","","",""
"True","15","Kings Ct.","Havana","FL","32333","","","","",""
"True","14830","SW Mt. Gilead Rd.","Greenville","FL","32331","","","","",""
"False","","P.O. Box 3451","Tallahassee","FL","32315","","","","",""
"True","4131","Neil Court","Tallahassee","FL","32303","","","","",""
"False","12487","Holley Rd","Tallahassee","FL","32317","","","","",""
"False","","","Tallahassee","FL","32312","","","","",""
"True","5056","Easy Street","Tallahassee","FL","32303","","","","",""
"True","6432","Cavalcade Trail","Tallahassee","FL","32312","","","","",""
"True","45","Happy Time Dr.","Crawfordville","FL","32327","","","","",""
"False","4967","Glen Castle Dr.","Tallahassee","FL","32309","","","","",""
"True","29841","SW Liberty Wilderness Camp Road","Bristol","FL","32321","","","","",""
"False","3919","Booth Rd.","Tallahassee","FL","32303","","","","",""
"True","3989","Sunhawk Blvd","Tallahassee","FL","32309","","","","",""
"True","8303","Hunters Ridge Trl","Tallahassee","FL","32312","","","","",""
"True","3905","Blind Brook Ln.","Tallahassee","FL","32303","","","","",""
"True","6048","Pimlico Ct.","Talllahasee","FL","32309","","","","",""
"True","6513","Omaha Tr.","Tallahassee","FL","32309","","","","",""
"False","2393","McWest St","Tallahassee","FL","32303","","","","",""
"False","","","Jennifer Armstrong","FL","","","","","",""
"True","4567","Berklie Dr.","Tallahassee","FL","32309","","","","",""
"True","2032","Cynthia Dr.","Tallahassee","FL","32303","","","","",""
"True","4541","Pecan Branch","Tallahassee","FL","32308","","","","",""
"True","3858","Matt Wing Rd.","Tallahassee","FL","32311","","","","",""
"True","4451","Argyle Ln","Tallahassee","FL","32309","","","","",""
"False","3675","Dexter Dr.","Tallahassee","FL","32312","","","","",""
"True","9045","Old Chemonie Rd.","Tallahassee","FL","32309","","","","",""
"True","4452","Argyle Ln.","Tallahassee","FL","32317","","","","",""
"True","2155","Orleans Dr.","Tallaassee","FL","32308","","","","",""
"True","8821","Green Acorn Ln","Tallahassee","FL","32317","","","","",""
"True","780","Rustling Pines Blvd.","Midway","FL","32343","","","","",""
"True","2102","Woodstock Ln.","Tallahassee","FL","32303","","","","",""
"True","496","Rustling Pines Blvd","Midway","FL","32343","","","","",""
"True","1165","Poplar Drive","Tallahassee","FL","32304","","","","",""
"True","3108","Elwood Trl","Tallahassee","FL","32309","","","","",""
"True","1816","Woodgate Way","Tallahassee","FL","32308","","","","",""
"False","2015","Hanover Ct","Tallahassee","FL","32303","","","","",""
"True","16","Renee St","Ceawforsville","FL","32327","","","","",""
"True","3309","Lakeshore Dr.","Tallahassee","FL","32312","","","","",""
"True","317","Oak Will Ct.","Tallahassee","FL","32312","","","","",""
"True","1920","Seminole Dr.","Tallahassee","FL","32301","","","","",""
"False","1449","Turkey Roost Trl","Tallahassee","FL","32317","","","","",""
"True","6746","Walden Cir.","Tallahassee","FL","32317","","","","",""
"False","407","Tallavana Trl","Havana","FL","32333","","","","",""
"True","3502","Sprinil Rd.","Tallahassee","FL","32305","","","","",""
"True","3312","Cherokee Ridge","Tallahassee","FL","32312","","","","",""
"True","2009","Natalie Ct.","Tallahassee","FL","32305","","","","",""
"False","269","Pond Pine Dr.","Tallahassee","FL","32310","","","","",""
"True","2378","Tuskavilla Rd.","Tallahassee","FL","32312","","","","",""
"True","368","St. Angelo Rd.","Tallahassee","FL","32312","","","","",""
"False","528","E Park Avenue","Tallahassee","FL","32301","","","","",""
"True","3018","Harpers Ferry Dr.","Tallahassee","FL","32308","","","","",""
"True","5822","Deer Park Cir.","Tallahassee","FL","32311","","","","",""
"True","4557","Running Meadows Ln.","Tallahassee","FL","32303","","","","",""
"False","421","Old Magnolia Rd.","Tallahassee","FL","32327","","","","",""
"True","3219","Woodhill Dr.","Tallahassee","FL","32303","","","","",""
"False","1878","E Windwood Way.","Tallahassee","FL","32311","","","","",""
"True","5108","Touraine Dr.","Tallahassee","FL","32308","","","","",""
"True","7139","Old Lloyd Rd.","Monticello","FL","32344","","","","",""
"True","3204","Springdale Dr.","Tallahassee","FL","32312","","","","",""
"True","3842","East Millers Bridge Rd.","Tallahassee","FL","32312","","","","",""
"False","1816","Bridgemont Trl","Tallahassee","FL","32312","","","","",""
"True","110","Revadee Spears","Crawfordville","FL","32327","","","","",""
"True","1960","Raymond Tucker Rd.","Tallahassee","FL","32311","","","","",""
"True","2004","Bushy Hall Rd.","Tallahassee","FL","32309","","","","",""
"False","9044","Silver Oak Ln","Tallahassee","FL","32311","","","","",""
"True","4359","Millwood Ln.","Tallahassee","FL","32312","","","","",""
"True","7480","Skipper Ln.","Tallahassee","FL","32317","","","","",""
"True","8484","Titus Ln","Tallahasse","FL","32305","","","","",""
"False","12720","Miccosukee Rd","Tallahassee","FL","32309","","","","",""
"True","7983","Talley Ann Dr","Tallahassee","FL","32311","","","","",""
"True","1430","Highland Dr.","Tallahassee","FL","32317","","","","",""
"True","171","O'Neal Way","Havana","FL","32333","","","","",""
"False","3329","Plowshare Rd","Tallahassee","FL","32309","","","","",""
"True","5707","La France Rd.","Tallahassee","FL","32305","","","","",""
"False","4","Rabbit Pond","Tallahassee","FL","32309","","","","",""
"True","1021","East 7th Avenue","Tallahassee","FL","32303","","","","",""
"True","7270","Kidd Dr","Tallahassee","FL","32303","","","","",""
"True","6073","Huckleberry Ln.","Tallahassee","FL","32303","","","","",""
"True","2742","Lakeview Point Rd.","Quincy","FL","32351","","","","",""
"False","489","John Knox","Tallahassee","FL","32303","","","","",""
"True","3785","Matt Wing Rd","Tallahassee","FL","32311","","","","",""
"True","4880","Easy St.","Tallahassee","FL","32303","","","","",""
"True","3709","Bentley Dr","Tallahassee","FL","32303","","","","",""
"True","690","Forest Lair","Tallahassee","FL","32312","","","","",""
"True","4202","Stargazer Tr.","Tallahassee","FL","32308","","","","",""
"False","1521","Maggie Ln","Tallahassee","FL","32308","","","","",""
"False","3929","Calle De Santos","Tallahassee","FL","32311","","","","",""
"True","1251","Sedgefield Rd","Tallahassee","FL","32317","","","","",""
"True","87","River Plantation","Crawfordville","FL","32327","","","","",""
"True","4764","Pintail Dr.","Tallahassee","FL","32317","","","","",""
"True","4000","Tallavana Trl","Havana","FL","32333","","","","",""
"True","1062","Winfield Forest Dr.","Tallahassee","FL","","","","","",""
"True","1528","China Grove Trail","Tallahassee","FL","32301","","","","","CLEARSTREAM,ATU MAINTENANCE"
"True","4657","Crooked Rd.","Tallahassee","FL","32310","","","","",""
"True","3440","Lakeshore Dr.","Tallahassee","FL","32312","","","","",""
"True","5355","Tallapoosa Rd.","Tallahassee","FL","32303","","","","",""
"True","2444","B Darnell Cir.","Tallahassee","FL","32303","","","","",""
"True","416","Revadee Spears Rd.","Crawfordville","FL","32327","","","","",""
"True","827","Wakulla Arran Rd.","Crawfordville","FL","32327","","","","",""
"True","4360","Amber Valley Dr.","Tallahassee","FL","32312","","","","",""
"True","1599","N Jefferson St.","Monticello","FL","32344","","","","",""
"True","3864","Matt Wing Rd,","Tallahassee","FL","32311","","","","",""
"True","9121","Hickory Nut hill","Tallahassee","FL","32312","","","","",""
"False","2079","Wildridge Dr","Tallahassee","FL","32303","","","","",""
"True","64","Summerwind Cir. N","Crawfordville","FL","32327","","","","",""
"True","200","Canopy Rd.","Monticello","FL","32344","","","","",""
"True","3966","Calle de Santos Dr","Tallahassee","FL","32311","","","","",""
"True","5048","Easy St.","Tallahassee","FL","32309","","","","",""
"True","2151","St Augustine Rd","Tallahassee","FL","32344","","","","",""
"True","237","Ace High Stables Rd.","Tallahassee","FL","32327","","","","",""
"True","3046","Hawks Glen","Tallahassee","FL","32312","","","","",""
"True","2022","Setting Sun Trl.","Tallahassee","FL","32303","","","","",""
"True","3315","Rutland Loop","Tallahassee","FL","32312","","","","",""
"True","1231","Rehwinkler Rd.","Crawfordville","FL","32327","","","","",""
"False","35","Live Oak Ridge Rd","Quincy","FL","32351","","","","",""
"False","4408","Farley Ln","Tallahassee","FL","32310","","","","",""
"True","4156","N. Mission Rd.","Tallahassee","FL","32308","","","","",""
"True","8241","Greenmont Avenue","Tallahassee","FL","32317","","","","",""
"True","25","Summerwind Cir, E","Crawfordville","FL","32327","","","","",""
"True","724","Eleazer Place","Tallahassee","FL","32312","","","","",""
"True","2821","Turkey Hill Trail","Tallahassee","FL","32312","","","","",""
"True","6251","Shady Ln.","Tallahassee","FL","32309","","","","",""
"True","157","Rosehill Drive, W","Tallahassee","FL","32312","","","","",""
"False","2605","Onyx Trl","Tallahassee","FL","32303","","","","",""
"True","186","Magnolia Ridge","Crawfordville","FL","32327","","","","",""
"True","3548","Trillium Ct.","Tallahassee","FL","32312","","","","","JEREMY DID SITE"
"True","12134","Waterfront Dr.","Tallahassee","FL","32312","","","","",""
"True","9922","Mrs. Myrt Way","Tallahassee","FL","32305","","","","",""
"True","6017","Redfield Cir.","Tallahassee","FL","32317","","","","",""
"True","6431","Joe Cotton Trl.","Tallahassee","FL","32309","","","","",""
"True","9877","Kinfolks Loop","Tallahassee","FL","32317","","","","",""
"True","2442","Manzanita Ct.","Tallahassee","FL","32303","","","","",""
"True","2","Sand Pine Trail","Crawfordville","FL","32327","","","","",""
"True","3795","Tom John Ln","Tallahassee","FL","32309","","","","",""
"False","4770","Coblestone Ln","Tallahassee","FL","32305","","","","",""
"True","2604","Stonegate Rd.","Tallahassee","FL","32308","","","","",""
"True","217","Sunflower","Tallahassee","FL","32305","","","","",""
"True","","Barbara Strickland OR","Crawfordville","FL","32327","","","","",""
"True","22","Graham Tr.","Crawfordville","FL","32327","","","","",""
"True","145","Kasey Ln.","Crawfordville","FL","32327","","","","",""
"True","278","Post Oak Dr.","Tallahassee","FL","32310","","","","",""
"True","3345","Caverns Rd.","Marianna","FL","32446","","","","","MAINTENANCE,BILL $75 PER CAMPSITE,ATU MAINTENANCE"
"True","556","Frank Shaw Rd.","Tallahassee","FL","","","","","",""
"True","1969","Charlais St.","Tallahassee","FL","32317","","","","",""
"True","539","Sand Pine cir","Midway","FL","32343","","","","",""
"True","8801","Centerville Rd.","Tallahassee","FL","32309","","","","",""
"True","62","Summer Lane","Crawfordville","FL","32327","","","","",""
"True","1850","Folkstone Dr.","Tallahassee","FL","32303","","","","",""
"True","2901","Quail Rise Ct.","Tallahassee","FL","32309","","","","",""
"True","2074","Little River Ln","TYallahassee","FL","32311","","","","",""
"False","2624","Neuchatel Dr.","Tallahassee","FL","32303","","","","",""
"True","7600","Mill Pond Loop","Tallahassee","FL","32317","","","","",""
"True","30","Still Water Ln","Havana","FL","32333","","","","",""
"False","6316","Hialeah Ct","Tallahassee","FL","32309","","","","",""
"True","9","Jason St.","Crawfordville","FL","32327","","","","",""
"True","5870","Stonler Rd.","Tallahassee","FL","32303","","","","",""
"True","2105","Woodstock Lane","Tallahassee","FL","32303","","","","",""
"True","4631","High Grove Rd.","Tallahassee","FL","32309","","","","",""
"True","3047","Bell Grove","Tallahassee","FL","32308","","","","",""
"True","112","Totem Trl","Tallahassee","FL","32317","","","","",""
"True","4034","High Ridge Park","Tallahassee","FL","32311","","","","",""
"True","5134","Pimlico Dr.","Tallahassee","FL","32309","","","","",""
"False","2726","Lucerne Dr","Tallahassee","FL","32303","","","","",""
"True","8239","Chickasaw Trl.","Tallahassee","FL","32312","","","","",""
"True","22400","Blountstown Hwy","Tallahasseee","FL","32310","","","","",""
"False","4748","Crooked Rd.","Tallahassee","FL","32310","","","","",""
"True","843","Mays Rd.","Tallahassee","FL","32312","","","","",""
"True","6738","Longhorn Dr","Tallahassee","FL","32311","","","","",""
"True","2127","Orleans Dr.","Tallahassee","FL","32308","","","","",""
"True","2129","Shady Oaks Dr.","Tallahassee","FL","32303","","","","",""
"False","6565","Velda Dairy Rd.","Tallahassee","FL","32309","","","","",""
"True","3328","North Shore Cir.","Tallahassee","FL","32312","","","","",""
"True","15","Oakland Dr.","Crawfordville","FL","32327","","","","",""
"True","1570","Timber Run","Havana","FL","32333","","","","",""
"True","63","Mimosa St.","Crawfordville","FL","32327","","","","",""
"True","161","Bay Pine Drive","Crawfordville","FL","32327","","","","",""
"True","2145","Little River Ln","Tallahassee","FL","32311","","","","",""
"True","3527","Trillium Ct.","Tallahassee","FL","32312","","","","",""
"True","2089","Kemp Rd","Havana","FL","32333","","","","",""
"True","6684","Kingman Trl.","Tallahassee","FL","32309","","","","",""
"True","367","Ashley Hall Rd","Crawfordville","FL","32327","","","","",""
"False","2082","Little River Ln","Tallahassee","FL","32311","","","","",""
"True","2368","Moondance Trl","Tallahassee","FL","32311","","","","",""
"False","1837","Collins Ldg. Rd","Tallahassee","FL","32310","","","","",""
"False","3930","Tan Mouse Rd","Tallahassee","FL","32309","","","","",""
"False","2636","Tram Rd","Monticello","FL","32344","","","","",""
"True","6185","Williams Rd","Tallahassee","FL","32311","","","","",""
"True","136","Hudson Ln.","Crawfordville","FL","32327","","","","",""
"True","651","Tyre rd.","Havana","FL","32333","","","","",""
"True","2257","Little River Lane","Tallahassee","FL","32311","","","","",""
"True","516","Howard Ave.","Tallahassee","FL","32310","","","","",""
"True","1671","Folkstone Rd.","Tallahassee","FL","32312","","","","",""
"True","8037","Archer Cir.","Tallahasse","FL","32309","","","","",""
"True","2089","Crestdale Dr","Tallahassee","FL","32308","","","","",""
"False","7256","Wintercreek Ln","Tallahassee","FL","32309","","","","",""
"True","7188","Ox Bow Circle","Tallahassee","FL","32312","","","","","ATU MAINTENANCE"
"True","3537","Lakeshore Dr.","Tallahassee","FL","32312","","","","",""
"False","3318","Cherakee Ridge Trl","Tallahassee","FL","32312","","","","",""
"True","1132","Winfield Forest Dr.","Tallahassee","FL","32317","","","","",""
"True","36","Sand Pine Ln.","Midway","FL","32343","","","","",""
"True","259","Champion Oaks Cir.","Havana","FL","32333","","","","",""
"True","9046","Foxwood Dr. N","Tallahassee","FL","32309","","","","",""
"True","3794","Bloxham Cutoff Rd.","Crawfordville","FL","32327","","","","",""
"True","3704","Anthony Dr.","Tallahassee","FL","32309","","","","",""
"True","302","Live Oak Ln.","Havana","FL","32333","","","","",""
"True","1504","Meeks Rd","Tallahassee","FL","32317","","","","",""
"True","1708","Tennessee Avenue","Lynn Haven","FL","32444","","","","",""
"True","7219","Ox Bow Cir.","Tallahassee","FL","32312","","","","",""
"True","3016","Harpers Ferry","Tallahassee","FL","","","","","",""
"True","1653","Paul Russell Rd.","Tallahassee","FL","32301","","","","",""
"True","6784","Winding Creek","Tallahassee","FL","32311","","","","",""
"True","9581","Rose Rd.","Tallahassee","FL","32311","","","","",""
"True","152","Woodberry Rd.","Quincy","FL","32351","","","","",""
"True","9020","Silver Oak Ln","Tallahassee","FL","32311","","","","",""
"True","31","Slash Pine Dr.","Crawfordville","FL","32327","","","","",""
"True","98","Munn Rd","Monticello","FL","32344","","","","",""
"True","1055","Corby Ct.","Tallahassee","FL","32317","","","","",""
"True","3817","Cottingham Dr.","Tallahassee","FL","32303","","","","",""
"True","4144","Buttercup Way","Tallahassee","FL","32311","","","","",""
"True","1462","Lloyd's Cove Road","Tallahassee","FL","32312","","","","",""
"True","","Florida Association & Property Management","Tallahassee","FL","32302","","","","",""
"False","","P.O. Box 13525","Tallahassee","FL","32317","","","","",""
"False","1926","Longview Dr.","Tallahassee","FL","","","","","",""
"True","1523","Paul Thompson Rd.","Monticello","FL","32344","","","","",""
"False","1926","Shelbey Ct.","Tallahassee","FL","32308","","","","",""
"False","","Perker Lane 32317","Tallahassee","FL","32317","","","","",""
"True","3423","Eagles Bluff Trc.","Tallahassee","FL","32310","","","","",""
"True","2407","Monaco Dr","Tallahassee","FL","32308","","","","",""
"False","5098","Pimlico Dr.","Tallahassee","FL","32308","","","","",""
"False","8568","Hosford Hwy","Quincy","FL","32351","","","","",""
"True","10480","Elgin Lane","Tallahassee","FL","32305","","","","",""
"True","1132","Green Hill Trace","Tallahasse","FL","32317","","","","",""
"True","3845","Imaginary Rd","Tallahassee","FL","32309","","","","",""
"False","2001","Thomasville Rd","Tallahassee","FL","32308","","","","",""
"True","2928","Quail Rise Ct,","Tallahassee","FL","32309","","","","",""
"True","3028","S Shamrock ST","Tallahassee","FL","32309","","","","",""
"False","1932","Shady Oaks Dr.","Tallahassee","FL","32303","","","","",""
"False","1306","Westway Rd.","Tallahassee","FL","32305","","","","",""
"True","3804","Bloxham Cutoff","Tallahassee","FL","32312","","","","",""
"True","1405","Manor House Drive","Tallahassee","FL","32312","","","","",""
"True","3125","Swaps Trl.","Tallahassee","FL","32309","","","","",""
"False","323","Bob Miller Rd Woodville","Woodville","FL","32327","","","","",""
"True","6300","Windwood Hills Circle","Tallahassee","FL","32311","","","","",""
"True","3540","Thomasville Road","Tallahassee","FL","32309","","","","",""
"True","4920","Lester Rd.","Tallahassee","FL","32317","","","","",""
"False","35","Zion Hill Rd","Crawfordville","FL","32327","","","","",""
"False","8393","Blountstown Hwy","Tallahassee","FL","32310","","","","",""
"True","4830","Limoges Dr","Tallahassee","FL","32308","","","","",""
"True","","Alexander Volya Or","Tallahassee","FL","32312","","","","",""
"True","1393","Gates Head Cir.","Tallahassee","FL","32317","","","","",""
"True","6800","Hill Gail Trl.","Tallahassee","FL","32309","","","","",""
"True","1513","Sand Rd.","Tallahassee","FL","32310","","","","",""
"False","3032","Livingston Rd","Tallahassee","FL","32303","","","","",""
"True","1012","Alameda Dr","Tallahassee","FL","32317","","","","",""
"True","4558","High Grove Rd.","Tallahassee","FL","32309","","","","",""
"False","4734","Cobblestone Ln.","Tallahassee","FL","32305","","","","",""
"True","864","Derbyshire Rd.","Tallahassee","FL","32312","","","","",""
"False","1505","Westheaven Dr","Tallahassee","FL","32310","","","","",""
"True","8444","Sandlewood Dr.","Tallahassee","FL","32305","","","","",""
"False","3001","Shamrock St. South","Tallahassee","FL","32309","","","","",""
"True","6536","Man O War Trail","Tallahassee","FL","32309","","","","",""
"True","115","Pendleton Ave.","Tallahassee","FL","32317","","","","",""
"True","3306","Sharer Rd.","Tallahassee","FL","32312","","","","",""
"True","1670","Vineyard Way","Tallahassee","FL","32317","","","","",""
"True","8271","Chickasaw Trail","Tallahassee","FL","32312","","","","",""
"True","3073","HICKORY WIND RD","Tallahassee","FL","32317","","","","",""
"True","2900","Blind Brook Ln","Tallahassee","FL","32303","","","","",""
"True","2207","Natural Wells Dr.","Tallahassee","FL","32305","","","","",""
"True","2579","Tiny Leaf Rd.","Tallahassee","FL","32305","","","","",""
"True","9608","LaConception Dr","Tallahasse","FL","32317","","","","",""
"True","9975","Woodland Hills Way","Tallahassee","FL","32309","","","","",""
"True","8182","Wenonga Ct.","Tallahassee","FL","32311","","","","",""
"True","2325","Williams Rd.","Tallahassee","FL","32311","","","","",""
"False","","Department of Construction","Tallahassee","FL","32307","","","","",""
"True","300","Ellis RD","Tallahassee","FL","32317","","","","",""
"True","4909","Pimlico Dr","Tallahassee","FL","32309","","","","",""
"True","3667","Dexter Dr.","Tallahassee","FL","32312","","","","",""
"False","2309","Tuscavilla Rd","Tallahassee","FL","32312","","","","",""
"True","2007","Long View Dr.","Tallahassee","FL","32303","","","","",""
"False","5328","Ben Brush Trail","Tallahassee","FL","32309","","","","",""
"False","1122","Thomasville Rd","Tallahassee","FL","32303","","","","","MAINTENANCE"
"True","48","Marie Cir.","Crawfordville","FL","32327","","","","",""
"True","4546","Highgrove Rd.","Tallahassee","FL","32312","","","","",""
"True","2457","Grassroots Way","Tallahassee","FL","32311","","","","",""
"True","229","Whitlock Ln.","Crawfordville","FL","32327","","","","",""
"True","8800","Bixler Trl.","Tallahassee","FL","32309","","","","",""
"True","1100","Bethel Church Rd.","Tallahassee","FL","32304","","","","",""
"True","7410","Anglewood Rd.","Tallahassee","FL","32309","","","","",""
"True","72","Kinsey Rd.","Crawfordville","FL","32327","","","","",""
"False","2100","Dover Rd","Midway","FL","32343","","","","",""
"True","226","Old Dirt Rd.","Tallahassee","FL","32311","","","","",""
"True","1505","Quail Rd","Tallahassee","FL","32317","","","","",""
"True","21","Tallavana Ct.","Havana","FL","32333","","","","",""
"True","3161","Seattle Slew Ct.","Tallahassee","FL","32309","","","","",""
"True","6600","Donerail Trl.","Tallahassee","FL","32309","","","","",""
"True","5151","Velda Dairy Rd.","Tallahassee","FL","","","","","",""
"True","334","Rudolph Lane","Monticello","FL","32344","","","","",""
"True","7617","White Fence Ln.","Tallahassee","FL","32311","","","","",""
"True","2981","Willie Mary Ln","Tallahassee","FL","32311","","","","",""
"True","1690","Canyon Creek Dr.","Tallahassee","FL","32305","","","","",""
"True","140","Southfork Ln","Crawfordville","FL","32327","","","","",""
"True","817","Arlington Rd.","Tallahassee","FL","32312","","","","",""
"True","1720","Paula Dr.","Tallahassee","FL","32303","","","","",""
"False","1812","Vinyards Way","Tallahassee","FL","32317","","","","",""
"True","132","Quail Run","Crawfordville","FL","32327","","","","",""
"True","3861","Long and Winding Rd","Tallahassee","FL","32309","","","","",""
"True","4015","Elder Ln.","Tallahassee","FL","32303","","","","",""
"True","1675","Rodeo Dr.","Tallahassee","FL","32311","","","","",""
"True","807","Peggy Dr.","Tallahassee","FL","32305","","","","",""
"True","722","Little John Rd.","Tallahassee","FL","32310","","","","",""
"False","12718","Laurel Hill Dr","Tallahassee","FL","32309","","","","",""
"True","14855","Fairbanks Ferry Rd.","Tallahassee","FL","32312","","","","",""
"True","2982","Cavanaugh Ct","Tallahassee","FL","32303","","","","",""
"True","525","New Light Church Rd.","Crawfordville","FL","32327","","","","",""
"True","125","Buck Lake Trl","Tallahassee","FL","32317","","","","",""
"True","3423","Rosemont Ridge Rd.","Tallahassee","FL","32312","","","","",""
"False","2703","Deep Forest Cir","Tallahassee","FL","32310","","","","",""
"True","1243","Colony Ct.","Tallahassee","FL","32317","","","","",""
"True","2139","Burnt Pine Ln.","Tallahassee","FL","32317","","","","",""
"True","188","Victoria Ave","Havana","FL","32333","","","","",""
"True","2825","Topaz Way","Tallahassee","FL","32309","","","","",""
"False","4221","Ben Blvd.","Tallahassee","FL","32303","","","","",""
"True","4228","Carnwarth Rd","Tallahassee","FL","32303","","","","",""
"True","3254","Robinhood Rd.","Tallahassee","FL","32312","","","","",""
"True","2312","Orleans Dr.","Tallahassee","FL","32308","","","","",""
"True","2126","Faulk Dr.","Tallahassee","FL","32303","","","","",""
"True","9046","Old Chemonie Rd","Tallahassee","FL","32309","","","","",""
"True","1400","Village Square Blvd, Suite 28","Tallahassee","FL","32309","","","","",""
"False","365","Remington Run","Tallahasssee","FL","32312","","","","",""
"True","1294","Avondale Way","Tallahassee","FL","32317","","","","",""
"True","7922","Reynols Dr.","Tallahassee","FL","32312","","","","",""
"False","3087","Livingston Road","Tallahassee","FL","32303","","","","",""
"True","4747","Stoney Trace","Tallahassee","FL","32309","","","","",""
"True","3211","Affirmed Court","Tallahassee","FL","32309","","","","",""
"True","4201","Woodhill Ct.","Tallahassee","FL","32303","","","","",""
"True","6724","Tomy Lee Trail","Tallahassee","FL","32309","","","","",""
"False","2005","Ellicott Dr.","Tallahassee","FL","32308","","","","",""
"False","3804","Rolf Dr.","Tallahassee","FL","32303","","","","",""
"True","1403","White Star Ln.","Tallahassee","FL","32312","","","","",""
"True","7284","Olga Ct.","Tallahassee","FL","32303","","","","",""
"True","1504","Paula Dr.","Tallahassee","FL","32303","","","","",""
"True","447","Tallavana Trl","Havana","FL","32333","","","","",""
"False","212","Ponce De Leon","Tallahassee","FL","32305","","","","",""
"True","4545","Highgrove Rd.","Tallahassee","FL","32309","","","","",""
"True","3203","Adwood Drive","Tallahassee","FL","32312","","","","",""
"True","4220","Carnwath Rd","Tallahassee","FL","32304","","","","",""
"False","411","Perritt Rd","Havana","FL","32333","","","","",""
"False","3125","Swaps Trail","Tallahassee","FL","32309","","","","",""
"False","4005","Bobbin Brook Cir.","Tallahassee","FL","32312","","","","",""
"True","2136","Little River Ln.","Tallahassee","FL","32311","","","","",""
"False","1596","North Point Ct","Tallahassee","FL","32308","","","","",""
"True","8839","Sapphire Dr.","Tallahassee","FL","32309","","","","",""
"True","1624","Village Square Blvd","Tallahassee","FL","32309","","","","","REALTOR"
"True","5108","Centennial Oak Cir.","Tallahasse","FL","32308","","","","",""
"True","2727","Apalachee Parkway","Tallahassee","FL","32301","","","","",""
"True","55","EJ Stringer Rd.","Crawfordville","FL","32327","","","","",""
"True","8637","Oak Forest Trl","Tallahassee","FL","32312","","","","",""
"True","4267","Pleasant Dr.","Tallahassee","FL","32303","","","","",""
"True","3571","Clear Creek Dr.","Tallahassee","FL","32301","","","","",""
"True","2807","Rabbit Hill Rd","Tallahassee","FL","32308","","","","",""
"True","2417","Fleischman Rd.","Tallahassee","FL","32308","","","","",""
"True","2705","Millstone Plantation Rd.","Tallahassee","FL","32312","","","","",""
"True","3773","Sally Lane","Tallahassee","FL","32312","","","","",""
"False","5718","Tower Road","Tallahassee","FL","32303","","","","",""
"False","600","Ohio Ave.","Lynn Haven","FL","32444","","","","",""
"False","3370","Capital Circle NE","Tallahassee","FL","32308","","","","",""
"False","146","Box Cut Rd","alligator point","FL","32346","","","","",""
"False","857","East Park Ave.","Tallahassee","FL","32301","","","","",""
"False","","Bruegger's Bagels","Tallahassee","FL","32303","","","","",""
"False","","Bruegger's Bagels","Tallahassee","FL","32308","","","","",""
"False","","PO Box 606","Apalachicola","FL","32329","","","","",""
"False","2732","Capital Cir NE","Tallahassee","FL","32308","","","","",""
"False","13305","Mahan Drive","Tallahassee","FL","32309","","","","",""
"True","2001","Apalachee Pkwy","Tallahassee","FL","32301","","","","",""
"True","3212","Apalachee Pkwy","Tallahassee","FL","32311","","","","",""
"True","9243","Parkhill Road","Tallahassee","FL","32311","","","","",""
"False","","P.O. Box 891","Midway","FL","32343","","","","",""
"False","3536","Limerick Drive","Tallahassee","FL","32309","","","","",""
"False","2550","W Tennessee St.","Tallahassee","FL","32304","","","","",""
"True","1235","Apalachee Parkway","Tallahassee","FL","32301","","","","","MAINTENANCE"
"False","3900","Commonwealth Boulevard M.S. 49","Tallahassee","FL","32399","","","","",""
"True","3900","Commonwealth Boulevard","Tallahassee","FL","32399","","","","",""
"False","6348","Count Fleet Trl.","Tallahassee","FL","32309","","","","",""
"False","7124","Summit Ridge Rd.","Tallahassee","FL","32308","","","","",""
"False","3236","Fawn Hill Trl","Tallahassee","FL","32312","","","","",""
"False","77","Carolina St.","Crawfordville","FL","32327","","","","",""
"True","2526","Chaires Cross Rd","Tallahassee","FL","32317","","","","",""
"True","1323","Nylic St","Tallahassee","FL","32304","","","","",""
"False","1323","Nylic St","Tallahassee","FL","32304","","","","",""
"False","4557","Capital Circle, N.W.","Tallahassee","FL","32303","","","","",""
"True","21335","Blountstown Hwy.","Tallahassee","FL","32310","","","","",""
"False","3011","Ingress Rd.","Tallahassee","FL","32303","","","","",""
"False","1839","Homewood Rd.","Tallahassee","FL","32303","","","","",""
"True","301","South Monroe St.","Tallahassee","FL","32301","","","","",""
"True","1351","Aenon Church Rd","Tallahassee","FL","32304","","","","",""
"False","6712","Hill Gail Trl","Tallahassee","FL","32309","","","","",""
"True","862","Blountstown Hwy.","Tallahassee","FL","32304","","","","",""
"True","262","Willie Rd","Monticello","FL","32344","","","","",""
"False","1203","Miccosukee Rd.","Tallahassee","FL","32308","","","","",""
"False","1682","Metropolitan Circle","Tallahassee","FL","32308","","","","",""
"True","2705","W. Tharpe St.","Tallahassee","FL","32303","","","","",""
"True","2234","Capital Cir NE","Tallahassee","FL","32308","","","","",""
"True","1110","Rich Bay Road","Havana","FL","32333","","","","",""
"True","4175","Apalachee Pkwy","Tallahassee","FL","32311","","","","",""
"True","4716","Capital Circle SW","Tallahassee","FL","32305","","","","",""
"False","1661","Centerville Road","Tallahassee","FL","32308","","","","",""
"False","","PO Box 13798","Tallahassee","FL","32317","","","","",""
"True","2701","N Monroe St.","Tallahassee","FL","32303","","","","","MAINTENANCE"
"False","39","Schwall Rd.","Havana","FL","32333","","","","",""
"False","","P. O. Box 6665","Tallahassee","FL","32314","","","","",""
"False","","PO Box 1137","Woodville","FL","32362","","","","",""
"True","1268","-B Timberlane Rd.","Tallahassee","FL","32312","","","","",""
"True","2836","McElroy St","Tallahassee","FL","32310","","","","",""
"False","","PO BOX 14001","Tallahassee","FL","32317","","","","",""
"True","3449","Cedarwood Trl.","Tallahassee","FL","32312","","","","",""
"False","6034","W Tennessee St,","Tallahassee","FL","32304","","","","",""
"True","415","Capital Circle SW","Tallahassee","FL","32303","","","","",""
"False","3520","Dogwood Valley Trail","Tallahassee","FL","32312","","","","",""
"False","1223","W Tharpe St,","Tallahassee","FL","32303","","","","",""
"False","1801","N. Meridian Rd","Tallahassee","FL","32303","","","","",""
"True","2943","Tallavana Trail","Havana","FL","32333","","","","",""
"True","4141","Apalachee Pkwy","Tallahassee","FL","32311","","","","","MAINTENANCE"
"True","1519","Capital Cir NE","Tallahassee","FL","32308","","","","",""
"True","745","Apalachee Pkwy","Tallahassee","FL","32301","","","","",""
"True","9689","Bull Headley Rd.","Tallahassee","FL","32312","","","","",""
"False","710","Alice Wester Dr","Tallahassee","FL","32310","","","","","PARCEL # 223650  B0030"
"False","3654","Peddie Dr.","Tallahassee","FL","32303","","","","",""
"True","3861","Windermere Rd","Tallahassee","FL","32311","","","","",""
"False","","Wakulla Arran Rd.","Tallahassee","FL","32327","","","","",""
